{
  "type": "FeatureCollection",
  "features": [
    {
      "type": "Feature",
      "id": "way/227139640",
      "properties": {},
      "geometry": {
        "type": "Polygon",
        "coordinates": [
          [
            [
              -73.97794,
              40.676724
            ],
            [
              -73.978018,
              40.676656
            ],
            [
              -73.978031,
              40.676639
            ],
            [
              -73.978043,
              40.676623
            ],
            [
              -73.978349,
              40.676743
            ],
            [
              -73.978265,
              40.676868
            ],
            [
              -73.978239,
              40.676857
            ],
            [
              -73.978248,
              40.676844
            ],
            [
              -73.97794,
              40.676724
            ]
          ]
        ]
      }
    },
    {
      "type": "Feature",
      "id": "way/432771874",
      "properties": {},
      "geometry": {
        "type": "Polygon",
        "coordinates": [
          [
            [
              -73.980158,
              40.680179
            ],
            [
              -73.980046,
              40.680135
            ],
            [
              -73.9802,
              40.679907
            ],
            [
              -73.980263,
              40.679932
            ],
            [
              -73.980312,
              40.679951
            ],
            [
              -73.980271,
              40.680012
            ],
            [
              -73.980158,
              40.680179
            ]
          ]
        ]
      }
    },
    {
      "type": "Feature",
      "id": "way/664967629",
      "properties": {},
      "geometry": {
        "type": "Polygon",
        "coordinates": [
          [
            [
              -73.989859,
              40.663279
            ],
            [
              -73.989824,
              40.663258
            ],
            [
              -73.989795,
              40.663235
            ],
            [
              -73.98977,
              40.66321
            ],
            [
              -73.989749,
              40.66318
            ],
            [
              -73.989737,
              40.663155
            ],
            [
              -73.989727,
              40.663123
            ],
            [
              -73.989723,
              40.663094
            ],
            [
              -73.989725,
              40.663062
            ],
            [
              -73.989731,
              40.663035
            ],
            [
              -73.98974,
              40.66301
            ],
            [
              -73.989756,
              40.662982
            ],
            [
              -73.989771,
              40.662962
            ],
            [
              -73.989798,
              40.662934
            ],
            [
              -73.989835,
              40.662955
            ],
            [
              -73.990033,
              40.663066
            ],
            [
              -73.990058,
              40.66308
            ],
            [
              -73.989958,
              40.663178
            ],
            [
              -73.989859,
              40.663279
            ]
          ]
        ]
      }
    },
    {
      "type": "Feature",
      "id": "way/710375704",
      "properties": {},
      "geometry": {
        "type": "Polygon",
        "coordinates": [
          [
            [
              -73.978009,
              40.671605
            ],
            [
              -73.9779,
              40.671553
            ],
            [
              -73.978084,
              40.671332
            ],
            [
              -73.978071,
              40.671326
            ],
            [
              -73.978125,
              40.671261
            ],
            [
              -73.978213,
              40.671303
            ],
            [
              -73.978191,
              40.671328
            ],
            [
              -73.978225,
              40.671345
            ],
            [
              -73.978009,
              40.671605
            ]
          ]
        ]
      }
    },
    {
      "type": "Feature",
      "id": "way/710375705",
      "properties": {},
      "geometry": {
        "type": "Polygon",
        "coordinates": [
          [
            [
              -73.978991,
              40.672006
            ],
            [
              -73.978708,
              40.671871
            ],
            [
              -73.978821,
              40.671734
            ],
            [
              -73.979105,
              40.671869
            ],
            [
              -73.978991,
              40.672006
            ]
          ]
        ]
      }
    },
    {
      "type": "Feature",
      "id": "way/710375706",
      "properties": {},
      "geometry": {
        "type": "Polygon",
        "coordinates": [
          [
            [
              -73.979517,
              40.671928
            ],
            [
              -73.979394,
              40.672078
            ],
            [
              -73.979281,
              40.672023
            ],
            [
              -73.979406,
              40.671875
            ],
            [
              -73.979517,
              40.671928
            ]
          ]
        ]
      }
    }
  ]
}
