{
  "type": "FeatureCollection",
  "features": [
    {
      "type": "Feature",
      "id": "way/28739394",
      "properties": {
        "name": "Mount Prospect Park"
      },
      "geometry": {
        "type": "Polygon",
        "coordinates": [
          [
            [
              -73.9673327,
              40.6726845
            ],
            [
              -73.966071,
              40.6723996
            ],
            [
              -73.9653673,
              40.6721907
            ],
            [
              -73.9655861,
              40.6718184
            ],
            [
              -73.9658476,
              40.6710902
            ],
            [
              -73.9660141,
              40.6709411
            ],
            [
              -73.9663971,
              40.6708739
            ],
            [
              -73.9668738,
              40.6709369
            ],
            [
              -73.967124,
              40.6710378
            ],
            [
              -73.9673881,
              40.671239
            ],
            [
              -73.9676002,
              40.6715306
            ],
            [
              -73.9677649,
              40.6716326
            ],
            [
              -73.9674028,
              40.6726948
            ],
            [
              -73.9673327,
              40.6726845
            ]
          ]
        ]
      }
    },
    {
      "type": "Feature",
      "id": "way/157016745",
      "properties": {
        "name": "Brooklyn Botanic Garden"
      },
      "geometry": {
        "type": "Polygon",
        "coordinates": [
          [
            [
              -73.9677649,
              40.6716326
            ],
            [
              -73.9676002,
              40.6715306
            ],
            [
              -73.9673881,
              40.671239
            ],
            [
              -73.967124,
              40.6710378
            ],
            [
              -73.9668738,
              40.6709369
            ],
            [
              -73.9663971,
              40.6708739
            ],
            [
              -73.9660141,
              40.6709411
            ],
            [
              -73.9658476,
              40.6710902
            ],
            [
              -73.9655861,
              40.6718184
            ],
            [
              -73.9654138,
              40.6720595
            ],
            [
              -73.9650308,
              40.6720403
            ],
            [
              -73.9650262,
              40.6719751
            ],
            [
              -73.9649377,
              40.6719308
            ],
            [
              -73.9648456,
              40.6720117
            ],
            [
              -73.9645343,
              40.671962
            ],
            [
              -73.9645616,
              40.6717315
            ],
            [
              -73.9647023,
              40.6715673
            ],
            [
              -73.9649602,
              40.6708344
            ],
            [
              -73.9649246,
              40.6707109
            ],
            [
              -73.9648089,
              40.6706273
            ],
            [
              -73.9649542,
              40.6701714
            ],
            [
              -73.9647369,
              40.6701987
            ],
            [
              -73.9647556,
              40.6701471
            ],
            [
              -73.9646871,
              40.6701328
            ],
            [
              -73.9647109,
              40.6700675
            ],
            [
              -73.9646448,
              40.6700536
            ],
            [
              -73.9646649,
              40.6699985
            ],
            [
              -73.9642915,
              40.6699201
            ],
            [
              -73.9642475,
              40.6700405
            ],
            [
              -73.9633757,
              40.6698581
            ],
            [
              -73.9633585,
              40.6699125
            ],
            [
              -73.9626574,
              40.6697766
            ],
            [
              -73.962344,
              40.6697922
            ],
            [
              -73.961397,
              40.6647629
            ],
            [
              -73.9620177,
              40.6633556
            ],
            [
              -73.9623527,
              40.6633366
            ],
            [
              -73.9632067,
              40.6646586
            ],
            [
              -73.9653571,
              40.6677393
            ],
            [
              -73.9679049,
              40.6712215
            ],
            [
              -73.9677649,
              40.6716326
            ]
          ]
        ]
      }
    }
  ]
}