{
  "type": "Feature",
  "properties": {
    "name": "Park Slope"
  },
  "geometry": {
    "type": "Polygon",
    "coordinates": [
      [
        [
          -73.978061,
          40.6848845
        ],
        [
          -73.9696766,
          40.6725604
        ],
        [
          -73.9695069,
          40.6722373
        ],
        [
          -73.9696152,
          40.6722101
        ],
        [
          -73.9697412,
          40.6721888
        ],
        [
          -73.9698728,
          40.6721815
        ],
        [
          -73.9700248,
          40.6721823
        ],
        [
          -73.9701466,
          40.6721945
        ],
        [
          -73.9702495,
          40.672219
        ],
        [
          -73.9703312,
          40.6722419
        ],
        [
          -73.9712242,
          40.6711016
        ],
        [
          -73.9721079,
          40.6700011
        ],
        [
          -73.9786025,
          40.6622082
        ],
        [
          -73.979306,
          40.6613711
        ],
        [
          -73.9792773,
          40.6613572
        ],
        [
          -73.9793303,
          40.6612942
        ],
        [
          -73.979359,
          40.6613081
        ],
        [
          -73.9794255,
          40.661229
        ],
        [
          -73.9793366,
          40.660922
        ],
        [
          -73.98309014494296,
          40.657494895254295
        ],
        [
          -73.9929266078714,
          40.66527065854752
        ],
        [
          -73.978061,
          40.6848845
        ]
      ]
    ]
  }
}