{
  "type": "Feature",
  "id": "relation/9760157",
  "properties": {
    "name": "Prospect Park"
  },
  "geometry": {
    "type": "Polygon",
    "coordinates": [
      [
        [
          -73.9718173,
          40.6516349
        ],
        [
          -73.9719731,
          40.6517084
        ],
        [
          -73.9721165,
          40.6517064
        ],
        [
          -73.9722033,
          40.6517033
        ],
        [
          -73.9722074,
          40.6517684
        ],
        [
          -73.9722284,
          40.6517851
        ],
        [
          -73.9726359,
          40.6532258
        ],
        [
          -73.9728131,
          40.6537969
        ],
        [
          -73.9732316,
          40.6552366
        ],
        [
          -73.9734408,
          40.6559794
        ],
        [
          -73.9736808,
          40.6567739
        ],
        [
          -73.973773,
          40.6571099
        ],
        [
          -73.9736818,
          40.6572371
        ],
        [
          -73.9736737,
          40.657293
        ],
        [
          -73.9736845,
          40.65735
        ],
        [
          -73.9736979,
          40.6574151
        ],
        [
          -73.9737274,
          40.6574711
        ],
        [
          -73.9738333,
          40.657582
        ],
        [
          -73.9739326,
          40.6576186
        ],
        [
          -73.9740285,
          40.6578887
        ],
        [
          -73.9741288,
          40.6581565
        ],
        [
          -73.9743865,
          40.6584956
        ],
        [
          -73.9746103,
          40.6586304
        ],
        [
          -73.9752352,
          40.6589353
        ],
        [
          -73.9769719,
          40.6597777
        ],
        [
          -73.9782192,
          40.6603774
        ],
        [
          -73.9789955,
          40.6607557
        ],
        [
          -73.9789811,
          40.660773
        ],
        [
          -73.9790328,
          40.6607982
        ],
        [
          -73.9790465,
          40.6607805
        ],
        [
          -73.9793366,
          40.660922
        ],
        [
          -73.9794255,
          40.661229
        ],
        [
          -73.979359,
          40.6613081
        ],
        [
          -73.9793303,
          40.6612942
        ],
        [
          -73.9792773,
          40.6613572
        ],
        [
          -73.979306,
          40.6613711
        ],
        [
          -73.9786025,
          40.6622082
        ],
        [
          -73.9721079,
          40.6700011
        ],
        [
          -73.9712242,
          40.6711016
        ],
        [
          -73.9703312,
          40.6722419
        ],
        [
          -73.9702495,
          40.672219
        ],
        [
          -73.9701466,
          40.6721945
        ],
        [
          -73.9700248,
          40.6721823
        ],
        [
          -73.9698728,
          40.6721815
        ],
        [
          -73.9697412,
          40.6721888
        ],
        [
          -73.9696152,
          40.6722101
        ],
        [
          -73.9695069,
          40.6722373
        ],
        [
          -73.9694063,
          40.6722724
        ],
        [
          -73.9693098,
          40.6723197
        ],
        [
          -73.9692238,
          40.6723701
        ],
        [
          -73.9685444,
          40.6714924
        ],
        [
          -73.9674719,
          40.6700182
        ],
        [
          -73.9666299,
          40.6688522
        ],
        [
          -73.9664585,
          40.6686232
        ],
        [
          -73.9662413,
          40.6683206
        ],
        [
          -73.9657254,
          40.6676001
        ],
        [
          -73.9650695,
          40.6666407
        ],
        [
          -73.9645239,
          40.6658582
        ],
        [
          -73.9645323,
          40.6658549
        ],
        [
          -73.9645211,
          40.6658386
        ],
        [
          -73.9644879,
          40.66579
        ],
        [
          -73.9644663,
          40.6657584
        ],
        [
          -73.9644452,
          40.6657279
        ],
        [
          -73.964411,
          40.6656797
        ],
        [
          -73.9643995,
          40.6656635
        ],
        [
          -73.964391,
          40.6656666
        ],
        [
          -73.9638262,
          40.6648502
        ],
        [
          -73.9637373,
          40.6647217
        ],
        [
          -73.963366,
          40.6642109
        ],
        [
          -73.9633419,
          40.6641234
        ],
        [
          -73.9633432,
          40.6640359
        ],
        [
          -73.9633526,
          40.6639871
        ],
        [
          -73.9633781,
          40.6639373
        ],
        [
          -73.9634129,
          40.6638915
        ],
        [
          -73.9634789,
          40.6638479
        ],
        [
          -73.9634002,
          40.6637338
        ],
        [
          -73.963235,
          40.6635162
        ],
        [
          -73.9631622,
          40.6634103
        ],
        [
          -73.9630938,
          40.6634103
        ],
        [
          -73.9629784,
          40.6634052
        ],
        [
          -73.9628926,
          40.6633859
        ],
        [
          -73.9628152,
          40.6633442
        ],
        [
          -73.9627558,
          40.6632852
        ],
        [
          -73.9627371,
          40.663218
        ],
        [
          -73.9627437,
          40.6630543
        ],
        [
          -73.9627813,
          40.6629839
        ],
        [
          -73.9630508,
          40.6627191
        ],
        [
          -73.9631501,
          40.6625853
        ],
        [
          -73.9632303,
          40.6624446
        ],
        [
          -73.9632594,
          40.6623482
        ],
        [
          -73.9632715,
          40.6622012
        ],
        [
          -73.9632735,
          40.6620995
        ],
        [
          -73.9632614,
          40.6620069
        ],
        [
          -73.9631628,
          40.6615417
        ],
        [
          -73.9630346,
          40.6606395
        ],
        [
          -73.96274,
          40.6588546
        ],
        [
          -73.9625989,
          40.6579584
        ],
        [
          -73.9624475,
          40.6570681
        ],
        [
          -73.9621619,
          40.6552728
        ],
        [
          -73.9621538,
          40.6552241
        ],
        [
          -73.9622044,
          40.6551965
        ],
        [
          -73.9622333,
          40.6551762
        ],
        [
          -73.9622553,
          40.6551608
        ],
        [
          -73.9622965,
          40.6551238
        ],
        [
          -73.9623347,
          40.6550793
        ],
        [
          -73.9623516,
          40.6550545
        ],
        [
          -73.962366,
          40.6550292
        ],
        [
          -73.9623797,
          40.6549997
        ],
        [
          -73.9623919,
          40.6549638
        ],
        [
          -73.9624011,
          40.6549154
        ],
        [
          -73.9624031,
          40.6548666
        ],
        [
          -73.9623973,
          40.6548185
        ],
        [
          -73.9624615,
          40.6547943
        ],
        [
          -73.9624676,
          40.6548118
        ],
        [
          -73.9646895,
          40.6539424
        ],
        [
          -73.9661639,
          40.6533743
        ],
        [
          -73.9686215,
          40.6524152
        ],
        [
          -73.9713083,
          40.651382
        ],
        [
          -73.971385,
          40.6513483
        ],
        [
          -73.9714676,
          40.65146
        ],
        [
          -73.9715302,
          40.651511
        ],
        [
          -73.9716567,
          40.6515636
        ],
        [
          -73.9717332,
          40.6515956
        ],
        [
          -73.9718173,
          40.6516349
        ]
      ]
    ]
  }
}