{
  "type": "FeatureCollection",
  "features": [
    {
      "type": "Feature",
      "id": "relation/151606",
      "properties": {
        "name": "Prospect Lake"
      },
      "geometry": {
        "type": "Polygon",
        "coordinates": [
          [
            [
              -73.9654682,
              40.658201
            ],
            [
              -73.9651953,
              40.6581868
            ],
            [
              -73.9650296,
              40.658096
            ],
            [
              -73.9649592,
              40.6580103
            ],
            [
              -73.9650303,
              40.6579314
            ],
            [
              -73.9650746,
              40.6576486
            ],
            [
              -73.9651845,
              40.6575077
            ],
            [
              -73.9653037,
              40.6574556
            ],
            [
              -73.9654224,
              40.6573544
            ],
            [
              -73.9654528,
              40.6572142
            ],
            [
              -73.9654134,
              40.6571417
            ],
            [
              -73.9653254,
              40.6570621
            ],
            [
              -73.9649965,
              40.6569305
            ],
            [
              -73.964845,
              40.656691
            ],
            [
              -73.9648149,
              40.6565148
            ],
            [
              -73.9649041,
              40.6563778
            ],
            [
              -73.9648058,
              40.6563546
            ],
            [
              -73.9646958,
              40.6562484
            ],
            [
              -73.9644845,
              40.6561917
            ],
            [
              -73.9643232,
              40.6560688
            ],
            [
              -73.9641028,
              40.6557072
            ],
            [
              -73.9641394,
              40.6556218
            ],
            [
              -73.964185,
              40.6555994
            ],
            [
              -73.9642006,
              40.6553863
            ],
            [
              -73.964398,
              40.6551585
            ],
            [
              -73.9647151,
              40.6550272
            ],
            [
              -73.9649118,
              40.6551414
            ],
            [
              -73.965223,
              40.6551089
            ],
            [
              -73.9654,
              40.6551658
            ],
            [
              -73.9660008,
              40.6550682
            ],
            [
              -73.9661617,
              40.6549949
            ],
            [
              -73.966406,
              40.6546821
            ],
            [
              -73.9663717,
              40.6544607
            ],
            [
              -73.9664454,
              40.6543483
            ],
            [
              -73.9666372,
              40.6544514
            ],
            [
              -73.9667513,
              40.654404
            ],
            [
              -73.9667614,
              40.6542102
            ],
            [
              -73.9671219,
              40.654158
            ],
            [
              -73.9671691,
              40.654357
            ],
            [
              -73.967319,
              40.6543716
            ],
            [
              -73.9675905,
              40.6541482
            ],
            [
              -73.9684185,
              40.6537658
            ],
            [
              -73.9684745,
              40.6536468
            ],
            [
              -73.9688779,
              40.653484
            ],
            [
              -73.9690744,
              40.6533194
            ],
            [
              -73.969291,
              40.6532419
            ],
            [
              -73.9693433,
              40.6533029
            ],
            [
              -73.9690984,
              40.6534107
            ],
            [
              -73.9691285,
              40.6537625
            ],
            [
              -73.9692261,
              40.6537641
            ],
            [
              -73.9697848,
              40.6533635
            ],
            [
              -73.9700607,
              40.6532292
            ],
            [
              -73.9700829,
              40.6531034
            ],
            [
              -73.9704028,
              40.6530002
            ],
            [
              -73.9703754,
              40.6528432
            ],
            [
              -73.9700243,
              40.6527058
            ],
            [
              -73.9699192,
              40.6527457
            ],
            [
              -73.9698784,
              40.6528237
            ],
            [
              -73.9698128,
              40.652813
            ],
            [
              -73.9698311,
              40.6527032
            ],
            [
              -73.9700482,
              40.65257
            ],
            [
              -73.9706141,
              40.6524362
            ],
            [
              -73.9709674,
              40.6526115
            ],
            [
              -73.9712353,
              40.6528218
            ],
            [
              -73.9714644,
              40.6530557
            ],
            [
              -73.9715269,
              40.6531851
            ],
            [
              -73.9715215,
              40.6533538
            ],
            [
              -73.9715703,
              40.6535346
            ],
            [
              -73.971215,
              40.6536885
            ],
            [
              -73.9711989,
              40.6537577
            ],
            [
              -73.9713928,
              40.65407
            ],
            [
              -73.971333,
              40.6542379
            ],
            [
              -73.9713922,
              40.6543519
            ],
            [
              -73.971392,
              40.6544251
            ],
            [
              -73.971333,
              40.6545716
            ],
            [
              -73.9713491,
              40.654653
            ],
            [
              -73.9714028,
              40.6546897
            ],
            [
              -73.9713384,
              40.654824
            ],
            [
              -73.9713384,
              40.6549054
            ],
            [
              -73.9714457,
              40.6552147
            ],
            [
              -73.9716012,
              40.6552757
            ],
            [
              -73.9716817,
              40.6554019
            ],
            [
              -73.9717461,
              40.6555972
            ],
            [
              -73.9717675,
              40.6557844
            ],
            [
              -73.9717193,
              40.6559106
            ],
            [
              -73.9715902,
              40.6559584
            ],
            [
              -73.9713512,
              40.6561384
            ],
            [
              -73.9712377,
              40.6561606
            ],
            [
              -73.9711571,
              40.6563365
            ],
            [
              -73.9709275,
              40.6564162
            ],
            [
              -73.9705141,
              40.6564689
            ],
            [
              -73.9702137,
              40.6564385
            ],
            [
              -73.9700774,
              40.6562227
            ],
            [
              -73.9699453,
              40.6561677
            ],
            [
              -73.9695474,
              40.656297
            ],
            [
              -73.9694126,
              40.6562117
            ],
            [
              -73.9692945,
              40.6562239
            ],
            [
              -73.9691712,
              40.6561792
            ],
            [
              -73.969021,
              40.6562117
            ],
            [
              -73.9687688,
              40.6561832
            ],
            [
              -73.9685757,
              40.6562443
            ],
            [
              -73.9683801,
              40.6561798
            ],
            [
              -73.9679509,
              40.6561798
            ],
            [
              -73.9676935,
              40.6562449
            ],
            [
              -73.9672936,
              40.6561425
            ],
            [
              -73.9672185,
              40.6560937
            ],
            [
              -73.9671381,
              40.6557966
            ],
            [
              -73.9670326,
              40.6556588
            ],
            [
              -73.9668862,
              40.6556502
            ],
            [
              -73.9668055,
              40.6556827
            ],
            [
              -73.9667572,
              40.6557437
            ],
            [
              -73.9667524,
              40.6559543
            ],
            [
              -73.966784,
              40.6560612
            ],
            [
              -73.9666711,
              40.6561751
            ],
            [
              -73.9667304,
              40.6564315
            ],
            [
              -73.9667143,
              40.656521
            ],
            [
              -73.9666392,
              40.6566024
            ],
            [
              -73.9663986,
              40.6567501
            ],
            [
              -73.966179,
              40.6567481
            ],
            [
              -73.9661187,
              40.656713
            ],
            [
              -73.9661064,
              40.6566062
            ],
            [
              -73.9659579,
              40.6565861
            ],
            [
              -73.965754,
              40.6567204
            ],
            [
              -73.9657487,
              40.65681
            ],
            [
              -73.9659347,
              40.6571232
            ],
            [
              -73.9660749,
              40.6571809
            ],
            [
              -73.9661684,
              40.6572717
            ],
            [
              -73.9661655,
              40.6573493
            ],
            [
              -73.9662511,
              40.6574298
            ],
            [
              -73.9664401,
              40.6574102
            ],
            [
              -73.9665131,
              40.6573593
            ],
            [
              -73.9666358,
              40.6574147
            ],
            [
              -73.9666183,
              40.6574745
            ],
            [
              -73.9667084,
              40.6575469
            ],
            [
              -73.9668934,
              40.6576258
            ],
            [
              -73.9670218,
              40.6576322
            ],
            [
              -73.9674736,
              40.6573897
            ],
            [
              -73.9677256,
              40.6573598
            ],
            [
              -73.9680221,
              40.6572706
            ],
            [
              -73.9683454,
              40.657314
            ],
            [
              -73.9686434,
              40.6574441
            ],
            [
              -73.9687721,
              40.6576004
            ],
            [
              -73.9687464,
              40.6577631
            ],
            [
              -73.9686863,
              40.6578478
            ],
            [
              -73.9684583,
              40.6579948
            ],
            [
              -73.968443,
              40.6581016
            ],
            [
              -73.9682775,
              40.6581105
            ],
            [
              -73.9681913,
              40.6579769
            ],
            [
              -73.9681913,
              40.6578727
            ],
            [
              -73.9679105,
              40.6578396
            ],
            [
              -73.9677568,
              40.6579471
            ],
            [
              -73.9664933,
              40.6581203
            ],
            [
              -73.9662185,
              40.6582477
            ],
            [
              -73.9658827,
              40.6583249
            ],
            [
              -73.9657528,
              40.658394
            ],
            [
              -73.9656082,
              40.6583844
            ],
            [
              -73.9655846,
              40.6583164
            ],
            [
              -73.9656974,
              40.6582333
            ],
            [
              -73.9657732,
              40.6582216
            ],
            [
              -73.9659694,
              40.6580798
            ],
            [
              -73.966016,
              40.6580091
            ],
            [
              -73.9660193,
              40.6579043
            ],
            [
              -73.9659516,
              40.6577955
            ],
            [
              -73.9658886,
              40.6577624
            ],
            [
              -73.9658343,
              40.6577767
            ],
            [
              -73.965784,
              40.6579542
            ],
            [
              -73.9657089,
              40.6580042
            ],
            [
              -73.9657277,
              40.6580524
            ],
            [
              -73.9654937,
              40.6581527
            ],
            [
              -73.9654682,
              40.658201
            ]
          ],
          [
            [
              -73.9682267,
              40.6544342
            ],
            [
              -73.9683718,
              40.6543908
            ],
            [
              -73.9684293,
              40.6542831
            ],
            [
              -73.9683824,
              40.6542334
            ],
            [
              -73.9682748,
              40.6542214
            ],
            [
              -73.9681518,
              40.6543692
            ],
            [
              -73.9682267,
              40.6544342
            ]
          ],
          [
            [
              -73.9662652,
              40.6579982
            ],
            [
              -73.9662423,
              40.6580449
            ],
            [
              -73.9662722,
              40.6580849
            ],
            [
              -73.9663522,
              40.6580876
            ],
            [
              -73.9664938,
              40.6580315
            ],
            [
              -73.966507,
              40.6579969
            ],
            [
              -73.9664296,
              40.6579708
            ],
            [
              -73.9662652,
              40.6579982
            ]
          ],
          [
            [
              -73.9656455,
              40.6577184
            ],
            [
              -73.9656053,
              40.6576472
            ],
            [
              -73.9655114,
              40.6575826
            ],
            [
              -73.9653639,
              40.6576004
            ],
            [
              -73.9652351,
              40.6577489
            ],
            [
              -73.9652056,
              40.6579565
            ],
            [
              -73.9652979,
              40.6580266
            ],
            [
              -73.9654963,
              40.6579579
            ],
            [
              -73.9655986,
              40.6579549
            ],
            [
              -73.9656697,
              40.6579036
            ],
            [
              -73.9656455,
              40.6577184
            ]
          ],
          [
            [
              -73.9684855,
              40.6542221
            ],
            [
              -73.9686143,
              40.6542425
            ],
            [
              -73.9686921,
              40.6541794
            ],
            [
              -73.9687237,
              40.6540963
            ],
            [
              -73.9687972,
              40.6540806
            ],
            [
              -73.9688304,
              40.6540452
            ],
            [
              -73.9687598,
              40.6539932
            ],
            [
              -73.9687702,
              40.6539365
            ],
            [
              -73.9686357,
              40.6538938
            ],
            [
              -73.9686004,
              40.6539531
            ],
            [
              -73.9683916,
              40.6539744
            ],
            [
              -73.9682921,
              40.654031
            ],
            [
              -73.9683192,
              40.6541672
            ],
            [
              -73.9684855,
              40.6542221
            ]
          ],
          [
            [
              -73.9680483,
              40.6544582
            ],
            [
              -73.9680993,
              40.6543951
            ],
            [
              -73.9681342,
              40.6542466
            ],
            [
              -73.9681261,
              40.654096
            ],
            [
              -73.9679759,
              40.6541041
            ],
            [
              -73.9678311,
              40.6541753
            ],
            [
              -73.9677801,
              40.6542893
            ],
            [
              -73.9678686,
              40.6544582
            ],
            [
              -73.9680483,
              40.6544582
            ]
          ],
          [
            [
              -73.9654136,
              40.6561181
            ],
            [
              -73.9655375,
              40.6559443
            ],
            [
              -73.9656144,
              40.6557115
            ],
            [
              -73.9654799,
              40.6556466
            ],
            [
              -73.9653549,
              40.655527
            ],
            [
              -73.9649992,
              40.655494
            ],
            [
              -73.9646437,
              40.6555795
            ],
            [
              -73.9645397,
              40.6557557
            ],
            [
              -73.9646894,
              40.6560495
            ],
            [
              -73.9649149,
              40.6561769
            ],
            [
              -73.9651196,
              40.6561891
            ],
            [
              -73.9654136,
              40.6561181
            ]
          ],
          [
            [
              -73.9712303,
              40.6530447
            ],
            [
              -73.971292,
              40.6530199
            ],
            [
              -73.9711556,
              40.6528576
            ],
            [
              -73.9709928,
              40.6528028
            ],
            [
              -73.9708299,
              40.6526599
            ],
            [
              -73.970702,
              40.6526484
            ],
            [
              -73.9708168,
              40.6528371
            ],
            [
              -73.9712303,
              40.6530447
            ]
          ]
        ]
      }
    },
    {
      "type": "Feature",
      "id": "relation/920715",
      "properties": {
        "name": "Upper Pool"
      },
      "geometry": {
        "type": "Polygon",
        "coordinates": [
          [
            [
              -73.9718406,
              40.6629222
            ],
            [
              -73.9718009,
              40.6628767
            ],
            [
              -73.971506,
              40.6630048
            ],
            [
              -73.9711194,
              40.6630856
            ],
            [
              -73.9709654,
              40.6630803
            ],
            [
              -73.9707477,
              40.6629829
            ],
            [
              -73.9706716,
              40.6628662
            ],
            [
              -73.9706486,
              40.6625192
            ],
            [
              -73.9708117,
              40.6622396
            ],
            [
              -73.9710008,
              40.662097
            ],
            [
              -73.9711957,
              40.6621195
            ],
            [
              -73.9715441,
              40.6622225
            ],
            [
              -73.9718874,
              40.6624339
            ],
            [
              -73.971913,
              40.6626668
            ],
            [
              -73.9718658,
              40.6627932
            ],
            [
              -73.9718704,
              40.662921
            ],
            [
              -73.9718406,
              40.6629222
            ]
          ],
          [
            [
              -73.9714189,
              40.6629263
            ],
            [
              -73.9715101,
              40.6629222
            ],
            [
              -73.9715369,
              40.6628937
            ],
            [
              -73.9715208,
              40.662853
            ],
            [
              -73.9713892,
              40.6628305
            ],
            [
              -73.971392,
              40.662796
            ],
            [
              -73.9713357,
              40.6627808
            ],
            [
              -73.9712593,
              40.6627986
            ],
            [
              -73.971274,
              40.6628734
            ],
            [
              -73.9714189,
              40.6629263
            ]
          ]
        ]
      }
    },
    {
      "type": "Feature",
      "id": "relation/19439684",
      "properties": {},
      "geometry": {
        "type": "Polygon",
        "coordinates": [
          [
            [
              -73.9664246,
              40.6621368
            ],
            [
              -73.9663227,
              40.6621124
            ],
            [
              -73.9663359,
              40.6620188
            ],
            [
              -73.9663794,
              40.662005
            ],
            [
              -73.9664299,
              40.6620392
            ],
            [
              -73.9664568,
              40.6620839
            ],
            [
              -73.9664246,
              40.6621368
            ]
          ]
        ]
      }
    },
    {
      "type": "Feature",
      "id": "way/23087259",
      "properties": {
        "name": "Lower Pool"
      },
      "geometry": {
        "type": "Polygon",
        "coordinates": [
          [
            [
              -73.9718704,
              40.662921
            ],
            [
              -73.9717999,
              40.6632123
            ],
            [
              -73.9716795,
              40.6633879
            ],
            [
              -73.9716214,
              40.6634012
            ],
            [
              -73.9715107,
              40.663525
            ],
            [
              -73.9713706,
              40.6636125
            ],
            [
              -73.9711117,
              40.6637024
            ],
            [
              -73.9709079,
              40.6638428
            ],
            [
              -73.9708234,
              40.663793
            ],
            [
              -73.9708105,
              40.6637175
            ],
            [
              -73.9707528,
              40.6636758
            ],
            [
              -73.9707541,
              40.6636219
            ],
            [
              -73.9707206,
              40.6635975
            ],
            [
              -73.9707689,
              40.6635161
            ],
            [
              -73.9707394,
              40.6634042
            ],
            [
              -73.9706106,
              40.6634073
            ],
            [
              -73.9704551,
              40.6634663
            ],
            [
              -73.9704081,
              40.6634693
            ],
            [
              -73.970388,
              40.6634276
            ],
            [
              -73.9704041,
              40.6633767
            ],
            [
              -73.9704846,
              40.6633127
            ],
            [
              -73.9708413,
              40.663218
            ],
            [
              -73.9710076,
              40.663216
            ],
            [
              -73.9711667,
              40.6633535
            ],
            [
              -73.9712946,
              40.6633422
            ],
            [
              -73.9713348,
              40.6632323
            ],
            [
              -73.9713952,
              40.6631784
            ],
            [
              -73.9716528,
              40.6631381
            ],
            [
              -73.9717575,
              40.6630636
            ],
            [
              -73.9718406,
              40.6629222
            ],
            [
              -73.9718704,
              40.662921
            ]
          ]
        ]
      }
    },
    {
      "type": "Feature",
      "id": "way/60861028",
      "properties": {
        "name": "Binnen Water"
      },
      "geometry": {
        "type": "Polygon",
        "coordinates": [
          [
            [
              -73.9682923,
              40.6618471
            ],
            [
              -73.9682333,
              40.6619447
            ],
            [
              -73.9680026,
              40.6619488
            ],
            [
              -73.9678792,
              40.6618389
            ],
            [
              -73.9677223,
              40.66181
            ],
            [
              -73.9676727,
              40.6618339
            ],
            [
              -73.9676528,
              40.6619179
            ],
            [
              -73.9675144,
              40.662018
            ],
            [
              -73.9674822,
              40.662079
            ],
            [
              -73.967375,
              40.6620831
            ],
            [
              -73.967503,
              40.6619711
            ],
            [
              -73.9675627,
              40.6618674
            ],
            [
              -73.9677116,
              40.6617754
            ],
            [
              -73.9678578,
              40.6617982
            ],
            [
              -73.9681313,
              40.6617453
            ],
            [
              -73.9682923,
              40.6618471
            ]
          ]
        ]
      }
    },
    {
      "type": "Feature",
      "id": "way/60964091",
      "properties": {
        "name": "Ambergill Pond"
      },
      "geometry": {
        "type": "Polygon",
        "coordinates": [
          [
            [
              -73.9697134,
              40.66415
            ],
            [
              -73.9695981,
              40.664198
            ],
            [
              -73.969477,
              40.6641224
            ],
            [
              -73.9693778,
              40.6642411
            ],
            [
              -73.9692253,
              40.6642566
            ],
            [
              -73.9693008,
              40.6641421
            ],
            [
              -73.969488,
              40.6640688
            ],
            [
              -73.9696274,
              40.664068
            ],
            [
              -73.9697024,
              40.664103
            ],
            [
              -73.9697134,
              40.66415
            ]
          ]
        ]
      }
    },
    {
      "type": "Feature",
      "id": "way/118509567",
      "properties": {
        "name": "Sea Lion Pool"
      },
      "geometry": {
        "type": "Polygon",
        "coordinates": [
          [
            [
              -73.9649784,
              40.6656707
            ],
            [
              -73.9648241,
              40.6656885
            ],
            [
              -73.9647626,
              40.6656428
            ],
            [
              -73.9647627,
              40.6655821
            ],
            [
              -73.9648491,
              40.6655071
            ],
            [
              -73.9650265,
              40.6655031
            ],
            [
              -73.9650728,
              40.6655785
            ],
            [
              -73.9649784,
              40.6656707
            ]
          ]
        ]
      }
    },
    {
      "type": "Feature",
      "id": "way/760417894",
      "properties": {},
      "geometry": {
        "type": "Polygon",
        "coordinates": [
          [
            [
              -73.9656473,
              40.666191
            ],
            [
              -73.9656027,
              40.6662486
            ],
            [
              -73.9654938,
              40.6662223
            ],
            [
              -73.9656511,
              40.6661089
            ],
            [
              -73.9657315,
              40.6661332
            ],
            [
              -73.965735,
              40.6661666
            ],
            [
              -73.9656473,
              40.666191
            ]
          ]
        ]
      }
    },
    {
      "type": "Feature",
      "id": "way/760417900",
      "properties": {
        "name": "Duck and Waterfowl"
      },
      "geometry": {
        "type": "Polygon",
        "coordinates": [
          [
            [
              -73.9647745,
              40.6648921
            ],
            [
              -73.9647044,
              40.6649554
            ],
            [
              -73.9645933,
              40.6649162
            ],
            [
              -73.9645602,
              40.66484
            ],
            [
              -73.9645827,
              40.6648309
            ],
            [
              -73.9645708,
              40.6647788
            ],
            [
              -73.9645059,
              40.6647186
            ],
            [
              -73.9646541,
              40.6645992
            ],
            [
              -73.9648223,
              40.6646331
            ],
            [
              -73.9646978,
              40.6647707
            ],
            [
              -73.9647745,
              40.6648921
            ]
          ]
        ]
      }
    },
    {
      "type": "Feature",
      "id": "way/760417903",
      "properties": {
        "name": "North American River Otter"
      },
      "geometry": {
        "type": "Polygon",
        "coordinates": [
          [
            [
              -73.9649862,
              40.6645609
            ],
            [
              -73.9649496,
              40.6645675
            ],
            [
              -73.9649197,
              40.664531
            ],
            [
              -73.9649526,
              40.6645143
            ],
            [
              -73.9649497,
              40.6644553
            ],
            [
              -73.9650256,
              40.6644188
            ],
            [
              -73.9651072,
              40.6644407
            ],
            [
              -73.9651197,
              40.6645288
            ],
            [
              -73.9649862,
              40.6645609
            ]
          ]
        ]
      }
    },
    {
      "type": "Feature",
      "id": "way/1420960678",
      "properties": {},
      "geometry": {
        "type": "Polygon",
        "coordinates": [
          [
            [
              -73.9708415,
              40.6638074
            ],
            [
              -73.9708792,
              40.6638328
            ],
            [
              -73.9707526,
              40.6639398
            ],
            [
              -73.9704834,
              40.6640192
            ],
            [
              -73.9704674,
              40.6641885
            ],
            [
              -73.9703718,
              40.6642535
            ],
            [
              -73.9696788,
              40.6641797
            ],
            [
              -73.9697062,
              40.6641191
            ],
            [
              -73.9701547,
              40.664175
            ],
            [
              -73.9702423,
              40.664214
            ],
            [
              -73.9704201,
              40.6642038
            ],
            [
              -73.9704483,
              40.6639999
            ],
            [
              -73.9705923,
              40.6639337
            ],
            [
              -73.9707233,
              40.6639161
            ],
            [
              -73.9708415,
              40.6638074
            ]
          ]
        ]
      }
    },
    {
      "type": "Feature",
      "id": "way/1420960684",
      "properties": {
        "name": "Lullwater"
      },
      "geometry": {
        "type": "Polygon",
        "coordinates": [
          [
            [
              -73.9682775,
              40.6581105
            ],
            [
              -73.968443,
              40.6581016
            ],
            [
              -73.9684288,
              40.6584078
            ],
            [
              -73.9684545,
              40.6586942
            ],
            [
              -73.9684288,
              40.65887
            ],
            [
              -73.9685043,
              40.6590737
            ],
            [
              -73.9684662,
              40.6591256
            ],
            [
              -73.9681517,
              40.6592324
            ],
            [
              -73.9679588,
              40.659503
            ],
            [
              -73.9676792,
              40.6597502
            ],
            [
              -73.9672615,
              40.6597946
            ],
            [
              -73.9672186,
              40.6599248
            ],
            [
              -73.9672867,
              40.660092
            ],
            [
              -73.9671408,
              40.6602092
            ],
            [
              -73.9670292,
              40.6601766
            ],
            [
              -73.9670206,
              40.6601245
            ],
            [
              -73.9670893,
              40.6600138
            ],
            [
              -73.9670641,
              40.6599314
            ],
            [
              -73.9669267,
              40.6598532
            ],
            [
              -73.9666178,
              40.6598728
            ],
            [
              -73.9665233,
              40.6599574
            ],
            [
              -73.9664976,
              40.6601006
            ],
            [
              -73.9665834,
              40.6601918
            ],
            [
              -73.9666006,
              40.6603285
            ],
            [
              -73.9665748,
              40.6604587
            ],
            [
              -73.9664056,
              40.6606795
            ],
            [
              -73.9662469,
              40.6607211
            ],
            [
              -73.966077,
              40.6606736
            ],
            [
              -73.9659483,
              40.6606801
            ],
            [
              -73.9658624,
              40.6607127
            ],
            [
              -73.9658367,
              40.6607843
            ],
            [
              -73.9658796,
              40.6608885
            ],
            [
              -73.965974,
              40.6609536
            ],
            [
              -73.9661028,
              40.6609666
            ],
            [
              -73.96618,
              40.6610252
            ],
            [
              -73.9662315,
              40.661188
            ],
            [
              -73.9662422,
              40.6616315
            ],
            [
              -73.966185,
              40.6615962
            ],
            [
              -73.9661208,
              40.6614443
            ],
            [
              -73.9660022,
              40.6614215
            ],
            [
              -73.9658006,
              40.661464
            ],
            [
              -73.9656795,
              40.661418
            ],
            [
              -73.9656045,
              40.6612576
            ],
            [
              -73.9654776,
              40.6611697
            ],
            [
              -73.9654046,
              40.661035
            ],
            [
              -73.965468,
              40.6610162
            ],
            [
              -73.9655177,
              40.6606663
            ],
            [
              -73.9654974,
              40.6606575
            ],
            [
              -73.9655828,
              40.660573
            ],
            [
              -73.9657658,
              40.6605774
            ],
            [
              -73.9659677,
              40.6605283
            ],
            [
              -73.9660341,
              40.6605043
            ],
            [
              -73.9661015,
              40.6604238
            ],
            [
              -73.9660867,
              40.6603293
            ],
            [
              -73.9659569,
              40.6602048
            ],
            [
              -73.9659569,
              40.6599574
            ],
            [
              -73.9662143,
              40.6597621
            ],
            [
              -73.9665577,
              40.659723
            ],
            [
              -73.9668581,
              40.6596058
            ],
            [
              -73.9671671,
              40.6595798
            ],
            [
              -73.9672872,
              40.6595146
            ],
            [
              -73.9674331,
              40.6592802
            ],
            [
              -73.9678194,
              40.6592216
            ],
            [
              -73.9679739,
              40.65915
            ],
            [
              -73.9682829,
              40.6587984
            ],
            [
              -73.9683086,
              40.6584208
            ],
            [
              -73.9682775,
              40.6581105
            ]
          ]
        ]
      }
    },
    {
      "type": "Feature",
      "id": "way/1421024342",
      "properties": {},
      "geometry": {
        "type": "Polygon",
        "coordinates": [
          [
            [
              -73.9662517,
              40.6616158
            ],
            [
              -73.966263,
              40.661697
            ],
            [
              -73.9662061,
              40.6616953
            ],
            [
              -73.9662029,
              40.6616098
            ],
            [
              -73.9662216,
              40.6616327
            ],
            [
              -73.9662517,
              40.6616158
            ]
          ]
        ]
      }
    },
    {
      "type": "Feature",
      "id": "way/1421024348",
      "properties": {},
      "geometry": {
        "type": "Polygon",
        "coordinates": [
          [
            [
              -73.9667186,
              40.6620225
            ],
            [
              -73.9668822,
              40.6621295
            ],
            [
              -73.9671308,
              40.6621339
            ],
            [
              -73.9673896,
              40.6620683
            ],
            [
              -73.967375,
              40.6620831
            ],
            [
              -73.9674534,
              40.6620801
            ],
            [
              -73.9671255,
              40.6621666
            ],
            [
              -73.966909,
              40.662164
            ],
            [
              -73.9667262,
              40.662077
            ],
            [
              -73.966696,
              40.6620389
            ],
            [
              -73.9667186,
              40.6620225
            ]
          ]
        ]
      }
    },
    {
      "type": "Feature",
      "id": "way/1421024355",
      "properties": {},
      "geometry": {
        "type": "Polygon",
        "coordinates": [
          [
            [
              -73.9715011,
              40.6617089
            ],
            [
              -73.9715121,
              40.6617965
            ],
            [
              -73.9714518,
              40.6618809
            ],
            [
              -73.9714899,
              40.66193
            ],
            [
              -73.9714343,
              40.6619499
            ],
            [
              -73.9713196,
              40.6619004
            ],
            [
              -73.9711957,
              40.6621195
            ],
            [
              -73.97116,
              40.6621134
            ],
            [
              -73.9712742,
              40.661892
            ],
            [
              -73.971402,
              40.661893
            ],
            [
              -73.9715011,
              40.6617089
            ]
          ]
        ]
      }
    },
    {
      "type": "Feature",
      "id": "way/1421024356",
      "properties": {},
      "geometry": {
        "type": "Polygon",
        "coordinates": [
          [
            [
              -73.9715046,
              40.6617113
            ],
            [
              -73.9714962,
              40.6617029
            ],
            [
              -73.971507,
              40.6617026
            ],
            [
              -73.9715046,
              40.6617113
            ]
          ]
        ]
      }
    },
    {
      "type": "Feature",
      "id": "way/1421024358",
      "properties": {},
      "geometry": {
        "type": "Polygon",
        "coordinates": [
          [
            [
              -73.9689438,
              40.6638223
            ],
            [
              -73.9690376,
              40.6639073
            ],
            [
              -73.9689681,
              40.6640697
            ],
            [
              -73.9689904,
              40.6641055
            ],
            [
              -73.9690732,
              40.6641907
            ],
            [
              -73.9692575,
              40.6642664
            ],
            [
              -73.9691147,
              40.6642461
            ],
            [
              -73.9689519,
              40.6641067
            ],
            [
              -73.9689529,
              40.6639915
            ],
            [
              -73.969019,
              40.6639158
            ],
            [
              -73.9689941,
              40.6638788
            ],
            [
              -73.9688917,
              40.6638455
            ],
            [
              -73.968888,
              40.6638127
            ],
            [
              -73.9689891,
              40.6635286
            ],
            [
              -73.9689974,
              40.6634317
            ],
            [
              -73.9689701,
              40.6633843
            ],
            [
              -73.9690227,
              40.6632036
            ],
            [
              -73.9691566,
              40.6629148
            ],
            [
              -73.969137,
              40.6625422
            ],
            [
              -73.9689106,
              40.6622315
            ],
            [
              -73.9682762,
              40.6618349
            ],
            [
              -73.968397,
              40.6618556
            ],
            [
              -73.9686026,
              40.662016
            ],
            [
              -73.9687867,
              40.6621036
            ],
            [
              -73.9689557,
              40.6622417
            ],
            [
              -73.9691928,
              40.6625757
            ],
            [
              -73.9691968,
              40.6629072
            ],
            [
              -73.9690777,
              40.6632409
            ],
            [
              -73.9690214,
              40.6635644
            ],
            [
              -73.9689724,
              40.6636233
            ],
            [
              -73.9689299,
              40.6637715
            ],
            [
              -73.9689438,
              40.6638223
            ]
          ]
        ]
      }
    }
  ]
}