{
  "type": "FeatureCollection",
  "features": [
    {
      "type": "Feature",
      "id": "way/5673843",
      "properties": {
        "kind": "drive",
        "name": "East Drive"
      },
      "geometry": {
        "type": "LineString",
        "coordinates": [
          [
            -73.9651646,
            40.6623992
          ],
          [
            -73.9652614,
            40.6627576
          ],
          [
            -73.9652411,
            40.6632267
          ],
          [
            -73.9653052,
            40.6636107
          ],
          [
            -73.9664488,
            40.6658226
          ],
          [
            -73.9666954,
            40.6660886
          ],
          [
            -73.9674333,
            40.6665999
          ],
          [
            -73.9684276,
            40.6670868
          ],
          [
            -73.9687311,
            40.6674518
          ],
          [
            -73.9688086,
            40.6681988
          ],
          [
            -73.9690973,
            40.668744
          ],
          [
            -73.9691425,
            40.668991
          ],
          [
            -73.9690561,
            40.6692969
          ],
          [
            -73.9686186,
            40.6699929
          ],
          [
            -73.9685275,
            40.6704392
          ],
          [
            -73.968642,
            40.6707507
          ],
          [
            -73.9689823,
            40.6710409
          ]
        ]
      }
    },
    {
      "type": "Feature",
      "id": "way/5675112",
      "properties": {
        "kind": "path",
        "name": "Wellhouse Drive"
      },
      "geometry": {
        "type": "LineString",
        "coordinates": [
          [
            -73.9668905,
            40.6588672
          ],
          [
            -73.9665002,
            40.658751
          ],
          [
            -73.9659267,
            40.6589367
          ],
          [
            -73.9656422,
            40.659145
          ],
          [
            -73.9655741,
            40.6595013
          ]
        ]
      }
    },
    {
      "type": "Feature",
      "id": "way/5676134",
      "properties": {
        "kind": "drive",
        "name": "East Drive"
      },
      "geometry": {
        "type": "LineString",
        "coordinates": [
          [
            -73.9632869,
            40.6636314
          ],
          [
            -73.963711,
            40.663432
          ],
          [
            -73.963975,
            40.663179
          ],
          [
            -73.964103,
            40.662476
          ],
          [
            -73.9642121,
            40.6622233
          ]
        ]
      }
    },
    {
      "type": "Feature",
      "id": "way/5676145",
      "properties": {
        "kind": "drive",
        "name": "East Drive"
      },
      "geometry": {
        "type": "LineString",
        "coordinates": [
          [
            -73.9631984,
            40.6556338
          ],
          [
            -73.96292,
            40.656168
          ],
          [
            -73.962829,
            40.656526
          ],
          [
            -73.9628108,
            40.6569817
          ],
          [
            -73.9628868,
            40.657329
          ],
          [
            -73.9635175,
            40.658606
          ],
          [
            -73.9634612,
            40.6591868
          ],
          [
            -73.9635372,
            40.6595151
          ],
          [
            -73.9643537,
            40.6608703
          ],
          [
            -73.9650166,
            40.6621369
          ]
        ]
      }
    },
    {
      "type": "Feature",
      "id": "way/5676952",
      "properties": {
        "kind": "drive",
        "name": "West Drive"
      },
      "geometry": {
        "type": "LineString",
        "coordinates": [
          [
            -73.97293,
            40.667938
          ],
          [
            -73.9725471,
            40.6678475
          ],
          [
            -73.9723411,
            40.6675956
          ]
        ]
      }
    },
    {
      "type": "Feature",
      "id": "way/5677441",
      "properties": {
        "kind": "drive",
        "name": "Center Drive"
      },
      "geometry": {
        "type": "LineString",
        "coordinates": [
          [
            -73.9734889,
            40.6577218
          ],
          [
            -73.9732379,
            40.6577463
          ],
          [
            -73.9730651,
            40.6576496
          ]
        ]
      }
    },
    {
      "type": "Feature",
      "id": "way/5677529",
      "properties": {
        "kind": "drive",
        "name": "West Drive"
      },
      "geometry": {
        "type": "LineString",
        "coordinates": [
          [
            -73.9730651,
            40.6576496
          ],
          [
            -73.9731101,
            40.6565833
          ],
          [
            -73.9729962,
            40.6561583
          ],
          [
            -73.9727941,
            40.6558447
          ],
          [
            -73.9720004,
            40.6551137
          ],
          [
            -73.9717901,
            40.6547517
          ],
          [
            -73.9717673,
            40.6543195
          ],
          [
            -73.9720047,
            40.6533387
          ],
          [
            -73.97192,
            40.6528328
          ]
        ]
      }
    },
    {
      "type": "Feature",
      "id": "way/5678022",
      "properties": {
        "kind": "drive",
        "name": "East Drive"
      },
      "geometry": {
        "type": "LineString",
        "coordinates": [
          [
            -73.9707099,
            40.6520032
          ],
          [
            -73.9700727,
            40.6520865
          ],
          [
            -73.969495,
            40.6522868
          ],
          [
            -73.9682718,
            40.6531125
          ],
          [
            -73.9677035,
            40.6533912
          ],
          [
            -73.967087,
            40.653579
          ],
          [
            -73.9655492,
            40.6538751
          ],
          [
            -73.9648732,
            40.6541124
          ],
          [
            -73.9639352,
            40.6547084
          ],
          [
            -73.9631984,
            40.6556338
          ]
        ]
      }
    },
    {
      "type": "Feature",
      "id": "way/5678023",
      "properties": {
        "kind": "drive",
        "name": "East Drive"
      },
      "geometry": {
        "type": "LineString",
        "coordinates": [
          [
            -73.9623516,
            40.6550545
          ],
          [
            -73.9629741,
            40.6553091
          ],
          [
            -73.9631984,
            40.6556338
          ]
        ]
      }
    },
    {
      "type": "Feature",
      "id": "way/5681800",
      "properties": {
        "kind": "drive",
        "name": "West Drive"
      },
      "geometry": {
        "type": "LineString",
        "coordinates": [
          [
            -73.9732664,
            40.6585218
          ],
          [
            -73.9730579,
            40.6580699
          ]
        ]
      }
    },
    {
      "type": "Feature",
      "id": "way/20954043",
      "properties": {
        "kind": "path"
      },
      "geometry": {
        "type": "LineString",
        "coordinates": [
          [
            -73.9705933,
            40.6705656
          ],
          [
            -73.970602,
            40.670367
          ],
          [
            -73.970805,
            40.6700187
          ],
          [
            -73.9709225,
            40.6696171
          ],
          [
            -73.9715414,
            40.6690103
          ],
          [
            -73.9716211,
            40.6688377
          ],
          [
            -73.9716177,
            40.6686527
          ]
        ]
      }
    },
    {
      "type": "Feature",
      "id": "way/23087252",
      "properties": {
        "kind": "drive",
        "name": "Center Drive"
      },
      "geometry": {
        "type": "LineString",
        "coordinates": [
          [
            -73.9732664,
            40.6585218
          ],
          [
            -73.9729314,
            40.6583981
          ],
          [
            -73.972672,
            40.6583965
          ]
        ]
      }
    },
    {
      "type": "Feature",
      "id": "way/23087253",
      "properties": {
        "kind": "path"
      },
      "geometry": {
        "type": "LineString",
        "coordinates": [
          [
            -73.9709826,
            40.6578393
          ],
          [
            -73.9705758,
            40.6580418
          ],
          [
            -73.9702338,
            40.6585535
          ],
          [
            -73.9698227,
            40.6589123
          ],
          [
            -73.9697993,
            40.6590688
          ],
          [
            -73.9699038,
            40.6591988
          ],
          [
            -73.9701216,
            40.6592395
          ],
          [
            -73.970993,
            40.6590106
          ],
          [
            -73.9712904,
            40.6590932
          ],
          [
            -73.9715105,
            40.6592304
          ]
        ]
      }
    },
    {
      "type": "Feature",
      "id": "way/23087270",
      "properties": {
        "kind": "path"
      },
      "geometry": {
        "type": "LineString",
        "coordinates": [
          [
            -73.9737577,
            40.6574658
          ],
          [
            -73.9737286,
            40.6572366
          ],
          [
            -73.9735143,
            40.6570694
          ],
          [
            -73.9731525,
            40.6557709
          ],
          [
            -73.972627,
            40.654865
          ],
          [
            -73.9725969,
            40.6541527
          ],
          [
            -73.9723814,
            40.6535949
          ],
          [
            -73.9723661,
            40.6528985
          ],
          [
            -73.9722931,
            40.6526902
          ],
          [
            -73.9715459,
            40.6519125
          ],
          [
            -73.9710335,
            40.6517246
          ]
        ]
      }
    },
    {
      "type": "Feature",
      "id": "way/28739286",
      "properties": {
        "kind": "path"
      },
      "geometry": {
        "type": "LineString",
        "coordinates": [
          [
            -73.9720873,
            40.6624166
          ],
          [
            -73.9728287,
            40.6626925
          ],
          [
            -73.9741993,
            40.6629711
          ],
          [
            -73.9744546,
            40.663062
          ],
          [
            -73.9748031,
            40.6633081
          ]
        ]
      }
    },
    {
      "type": "Feature",
      "id": "way/28739348",
      "properties": {
        "kind": "path"
      },
      "geometry": {
        "type": "LineString",
        "coordinates": [
          [
            -73.9720873,
            40.6624166
          ],
          [
            -73.9719775,
            40.6627054
          ],
          [
            -73.9719861,
            40.6630439
          ],
          [
            -73.9720633,
            40.6632002
          ],
          [
            -73.9721921,
            40.663402
          ],
          [
            -73.9727585,
            40.6638122
          ],
          [
            -73.9730246,
            40.6640987
          ],
          [
            -73.9730847,
            40.6643656
          ],
          [
            -73.9730205,
            40.6645731
          ],
          [
            -73.9727551,
            40.6648467
          ],
          [
            -73.9726502,
            40.6649216
          ],
          [
            -73.9722593,
            40.664978
          ],
          [
            -73.9720637,
            40.6651225
          ],
          [
            -73.9720823,
            40.6653486
          ]
        ]
      }
    },
    {
      "type": "Feature",
      "id": "way/28739358",
      "properties": {
        "kind": "path"
      },
      "geometry": {
        "type": "LineString",
        "coordinates": [
          [
            -73.9719861,
            40.6630439
          ],
          [
            -73.9717223,
            40.6634639
          ],
          [
            -73.9707048,
            40.6640558
          ],
          [
            -73.9704784,
            40.6643858
          ],
          [
            -73.9706119,
            40.6644986
          ],
          [
            -73.9708703,
            40.6650492
          ],
          [
            -73.9711876,
            40.665464
          ],
          [
            -73.9715238,
            40.6657654
          ],
          [
            -73.9716405,
            40.6658025
          ]
        ]
      }
    },
    {
      "type": "Feature",
      "id": "way/35089581",
      "properties": {
        "kind": "path"
      },
      "geometry": {
        "type": "LineString",
        "coordinates": [
          [
            -73.9691036,
            40.6709104
          ],
          [
            -73.969031,
            40.6707056
          ],
          [
            -73.9691989,
            40.6701153
          ],
          [
            -73.969165,
            40.6695779
          ],
          [
            -73.9694018,
            40.6690347
          ],
          [
            -73.9693325,
            40.6687315
          ],
          [
            -73.9694451,
            40.6682933
          ],
          [
            -73.969402,
            40.6679424
          ],
          [
            -73.969752,
            40.6672273
          ],
          [
            -73.9697675,
            40.6665963
          ]
        ]
      }
    },
    {
      "type": "Feature",
      "id": "way/43222327",
      "properties": {
        "kind": "path"
      },
      "geometry": {
        "type": "LineString",
        "coordinates": [
          [
            -73.9692139,
            40.6580328
          ],
          [
            -73.9692707,
            40.6581373
          ],
          [
            -73.969025,
            40.659627
          ],
          [
            -73.9694125,
            40.66054
          ]
        ]
      }
    },
    {
      "type": "Feature",
      "id": "way/43222350",
      "properties": {
        "kind": "path"
      },
      "geometry": {
        "type": "LineString",
        "coordinates": [
          [
            -73.969025,
            40.659627
          ],
          [
            -73.9686081,
            40.6602338
          ],
          [
            -73.9682569,
            40.6604929
          ],
          [
            -73.9677984,
            40.6605949
          ],
          [
            -73.9673473,
            40.6604689
          ]
        ]
      }
    },
    {
      "type": "Feature",
      "id": "way/43222421",
      "properties": {
        "kind": "path"
      },
      "geometry": {
        "type": "LineString",
        "coordinates": [
          [
            -73.9633018,
            40.6554798
          ],
          [
            -73.9637198,
            40.6556827
          ],
          [
            -73.9640406,
            40.6559337
          ],
          [
            -73.9641913,
            40.6561372
          ],
          [
            -73.9643568,
            40.6565482
          ],
          [
            -73.9644781,
            40.6566708
          ]
        ]
      }
    },
    {
      "type": "Feature",
      "id": "way/43222456",
      "properties": {
        "kind": "drive",
        "name": "Center Drive"
      },
      "geometry": {
        "type": "LineString",
        "coordinates": [
          [
            -73.9688302,
            40.6624162
          ],
          [
            -73.9691882,
            40.6622638
          ]
        ]
      }
    },
    {
      "type": "Feature",
      "id": "way/43222472",
      "properties": {
        "kind": "drive",
        "name": "Center Drive"
      },
      "geometry": {
        "type": "LineString",
        "coordinates": [
          [
            -73.9652109,
            40.6624925
          ],
          [
            -73.9658774,
            40.6627065
          ],
          [
            -73.9662905,
            40.662735
          ],
          [
            -73.9672588,
            40.6625324
          ],
          [
            -73.9681215,
            40.6625772
          ],
          [
            -73.9688302,
            40.6624162
          ]
        ]
      }
    },
    {
      "type": "Feature",
      "id": "way/43315027",
      "properties": {
        "kind": "drive",
        "name": "West Drive"
      },
      "geometry": {
        "type": "LineString",
        "coordinates": [
          [
            -73.9689823,
            40.6710409
          ],
          [
            -73.9697075,
            40.6711785
          ],
          [
            -73.9704216,
            40.6710047
          ]
        ]
      }
    },
    {
      "type": "Feature",
      "id": "way/59664819",
      "properties": {
        "kind": "path"
      },
      "geometry": {
        "type": "LineString",
        "coordinates": [
          [
            -73.9736525,
            40.6682325
          ],
          [
            -73.9735673,
            40.6682089
          ],
          [
            -73.972788,
            40.6684297
          ],
          [
            -73.972517,
            40.6686564
          ],
          [
            -73.9723976,
            40.6689801
          ]
        ]
      }
    },
    {
      "type": "Feature",
      "id": "way/59664838",
      "properties": {
        "kind": "path"
      },
      "geometry": {
        "type": "LineString",
        "coordinates": [
          [
            -73.972788,
            40.6684297
          ],
          [
            -73.9729323,
            40.6682369
          ],
          [
            -73.9729964,
            40.667872
          ],
          [
            -73.9727189,
            40.6673878
          ]
        ]
      }
    },
    {
      "type": "Feature",
      "id": "way/60926931",
      "properties": {
        "kind": "path"
      },
      "geometry": {
        "type": "LineString",
        "coordinates": [
          [
            -73.9737665,
            40.6681022
          ],
          [
            -73.9736347,
            40.66764
          ],
          [
            -73.9734488,
            40.667496
          ],
          [
            -73.9732034,
            40.6670647
          ],
          [
            -73.9731001,
            40.6671223
          ]
        ]
      }
    },
    {
      "type": "Feature",
      "id": "way/60942160",
      "properties": {
        "kind": "path"
      },
      "geometry": {
        "type": "LineString",
        "coordinates": [
          [
            -73.9690631,
            40.6686731
          ],
          [
            -73.9692391,
            40.6683997
          ],
          [
            -73.9692381,
            40.6683045
          ],
          [
            -73.9690467,
            40.6674049
          ],
          [
            -73.9686731,
            40.6669203
          ],
          [
            -73.9682577,
            40.6660628
          ],
          [
            -73.9680926,
            40.665953
          ],
          [
            -73.9677595,
            40.6658848
          ],
          [
            -73.967596,
            40.6657216
          ]
        ]
      }
    },
    {
      "type": "Feature",
      "id": "way/61075093",
      "properties": {
        "kind": "path",
        "name": "Hill Drive"
      },
      "geometry": {
        "type": "LineString",
        "coordinates": [
          [
            -73.9646027,
            40.661379
          ],
          [
            -73.9645612,
            40.6606125
          ],
          [
            -73.9647087,
            40.6601814
          ]
        ]
      }
    },
    {
      "type": "Feature",
      "id": "way/61075109",
      "properties": {
        "kind": "path"
      },
      "geometry": {
        "type": "LineString",
        "coordinates": [
          [
            -73.9679917,
            40.6640758
          ],
          [
            -73.9685069,
            40.6633971
          ],
          [
            -73.9686081,
            40.6630131
          ],
          [
            -73.9686151,
            40.6628876
          ],
          [
            -73.9683392,
            40.6625576
          ]
        ]
      }
    },
    {
      "type": "Feature",
      "id": "way/97010376",
      "properties": {
        "kind": "drive",
        "name": "East Drive"
      },
      "geometry": {
        "type": "LineString",
        "coordinates": [
          [
            -73.9689823,
            40.6710409
          ],
          [
            -73.9693008,
            40.6712281
          ],
          [
            -73.9695395,
            40.6714921
          ],
          [
            -73.9696754,
            40.672213
          ]
        ]
      }
    },
    {
      "type": "Feature",
      "id": "way/97010406",
      "properties": {
        "kind": "drive",
        "name": "West Drive"
      },
      "geometry": {
        "type": "LineString",
        "coordinates": [
          [
            -73.9704216,
            40.6710047
          ],
          [
            -73.970706,
            40.670712
          ],
          [
            -73.9711852,
            40.669985
          ],
          [
            -73.971875,
            40.6693473
          ],
          [
            -73.9721723,
            40.6688268
          ],
          [
            -73.9723551,
            40.6679507
          ],
          [
            -73.972218,
            40.666438
          ],
          [
            -73.9724195,
            40.665934
          ],
          [
            -73.9732456,
            40.6651382
          ],
          [
            -73.9738,
            40.664304
          ],
          [
            -73.974468,
            40.663631
          ],
          [
            -73.975182,
            40.663162
          ],
          [
            -73.9766182,
            40.6624845
          ],
          [
            -73.9770701,
            40.6621703
          ],
          [
            -73.977507,
            40.66162
          ],
          [
            -73.9775775,
            40.6614086
          ],
          [
            -73.9775598,
            40.6610585
          ]
        ]
      }
    },
    {
      "type": "Feature",
      "id": "way/110165606",
      "properties": {
        "kind": "path"
      },
      "geometry": {
        "type": "LineString",
        "coordinates": [
          [
            -73.9707808,
            40.6708598
          ],
          [
            -73.970851,
            40.6710947
          ],
          [
            -73.9701553,
            40.6719179
          ],
          [
            -73.9700964,
            40.6722327
          ]
        ]
      }
    },
    {
      "type": "Feature",
      "id": "way/110165608",
      "properties": {
        "kind": "path"
      },
      "geometry": {
        "type": "LineString",
        "coordinates": [
          [
            -73.9720873,
            40.6624166
          ],
          [
            -73.9722703,
            40.6621659
          ],
          [
            -73.972275,
            40.6617724
          ],
          [
            -73.9723429,
            40.6615938
          ],
          [
            -73.9725975,
            40.6613298
          ],
          [
            -73.9739645,
            40.6607456
          ],
          [
            -73.9745251,
            40.660693
          ],
          [
            -73.9752083,
            40.6604568
          ],
          [
            -73.9756719,
            40.6604463
          ],
          [
            -73.9757551,
            40.6601529
          ]
        ]
      }
    },
    {
      "type": "Feature",
      "id": "way/118512559",
      "properties": {
        "kind": "path"
      },
      "geometry": {
        "type": "LineString",
        "coordinates": [
          [
            -73.97032,
            40.6641644
          ],
          [
            -73.9702412,
            40.6634804
          ],
          [
            -73.9705598,
            40.6628866
          ],
          [
            -73.9704299,
            40.6624575
          ],
          [
            -73.9704569,
            40.6622381
          ],
          [
            -73.9708124,
            40.6619612
          ],
          [
            -73.9709987,
            40.6618953
          ],
          [
            -73.9712215,
            40.6619468
          ]
        ]
      }
    },
    {
      "type": "Feature",
      "id": "way/118768384",
      "properties": {
        "kind": "drive",
        "name": "West Drive"
      },
      "geometry": {
        "type": "LineString",
        "coordinates": [
          [
            -73.9775598,
            40.6610585
          ],
          [
            -73.9773494,
            40.6606737
          ],
          [
            -73.976995,
            40.66041
          ],
          [
            -73.976519,
            40.660216
          ],
          [
            -73.9757827,
            40.6601005
          ],
          [
            -73.975253,
            40.659896
          ],
          [
            -73.974587,
            40.6593764
          ],
          [
            -73.9735314,
            40.6588
          ],
          [
            -73.9732664,
            40.6585218
          ]
        ]
      }
    },
    {
      "type": "Feature",
      "id": "way/156867571",
      "properties": {
        "kind": "drive",
        "name": "Center Drive"
      },
      "geometry": {
        "type": "LineString",
        "coordinates": [
          [
            -73.9691882,
            40.6622638
          ],
          [
            -73.9695582,
            40.6620151
          ],
          [
            -73.9697808,
            40.6617076
          ],
          [
            -73.9699554,
            40.6612953
          ],
          [
            -73.9701509,
            40.6604944
          ],
          [
            -73.9704221,
            40.6602576
          ],
          [
            -73.9710292,
            40.6598863
          ],
          [
            -73.9719711,
            40.6586886
          ],
          [
            -73.9722621,
            40.6585159
          ],
          [
            -73.972672,
            40.6583965
          ]
        ]
      }
    },
    {
      "type": "Feature",
      "id": "way/156867587",
      "properties": {
        "kind": "path",
        "name": "Wellhouse Drive"
      },
      "geometry": {
        "type": "LineString",
        "coordinates": [
          [
            -73.9721526,
            40.6552761
          ],
          [
            -73.9719468,
            40.6553762
          ],
          [
            -73.9719465,
            40.6560001
          ],
          [
            -73.9717956,
            40.6562444
          ],
          [
            -73.9713809,
            40.6564604
          ],
          [
            -73.970461,
            40.6565739
          ],
          [
            -73.9700901,
            40.6567194
          ],
          [
            -73.9696045,
            40.657133
          ],
          [
            -73.9692549,
            40.6579689
          ],
          [
            -73.9691161,
            40.6581496
          ],
          [
            -73.9688855,
            40.6582508
          ],
          [
            -73.968623,
            40.658257
          ]
        ]
      }
    },
    {
      "type": "Feature",
      "id": "way/180909828",
      "properties": {
        "kind": "path",
        "name": "Wellhouse Drive"
      },
      "geometry": {
        "type": "LineString",
        "coordinates": [
          [
            -73.9681428,
            40.6582818
          ],
          [
            -73.967331,
            40.6585234
          ],
          [
            -73.9668905,
            40.6588672
          ]
        ]
      }
    },
    {
      "type": "Feature",
      "id": "way/246570816",
      "properties": {
        "kind": "path"
      },
      "geometry": {
        "type": "LineString",
        "coordinates": [
          [
            -73.9646107,
            40.6597055
          ],
          [
            -73.965267,
            40.6591463
          ],
          [
            -73.9658419,
            40.6588862
          ]
        ]
      }
    },
    {
      "type": "Feature",
      "id": "way/259177229",
      "properties": {
        "kind": "path"
      },
      "geometry": {
        "type": "LineString",
        "coordinates": [
          [
            -73.9754014,
            40.6636302
          ],
          [
            -73.974884,
            40.6637135
          ],
          [
            -73.9739677,
            40.6643067
          ],
          [
            -73.9738829,
            40.6644463
          ],
          [
            -73.9738449,
            40.6647524
          ]
        ]
      }
    },
    {
      "type": "Feature",
      "id": "way/259177234",
      "properties": {
        "kind": "path"
      },
      "geometry": {
        "type": "LineString",
        "coordinates": [
          [
            -73.9716011,
            40.6514732
          ],
          [
            -73.9710335,
            40.6517246
          ],
          [
            -73.97052,
            40.6517848
          ],
          [
            -73.9702247,
            40.6519365
          ],
          [
            -73.969405,
            40.6521964
          ],
          [
            -73.9683517,
            40.6527885
          ],
          [
            -73.96798,
            40.6531034
          ],
          [
            -73.96734,
            40.653359
          ],
          [
            -73.9670824,
            40.6534331
          ],
          [
            -73.9666162,
            40.653449
          ],
          [
            -73.9650109,
            40.6539356
          ],
          [
            -73.9643326,
            40.6542728
          ],
          [
            -73.9638169,
            40.6546352
          ]
        ]
      }
    },
    {
      "type": "Feature",
      "id": "way/259177235",
      "properties": {
        "kind": "path"
      },
      "geometry": {
        "type": "LineString",
        "coordinates": [
          [
            -73.9621779,
            40.6551325
          ],
          [
            -73.9626557,
            40.6554249
          ],
          [
            -73.9628472,
            40.6556898
          ],
          [
            -73.9628402,
            40.6559093
          ],
          [
            -73.962587,
            40.6565953
          ],
          [
            -73.9626085,
            40.6569656
          ],
          [
            -73.9628016,
            40.6575618
          ],
          [
            -73.9631879,
            40.658272
          ],
          [
            -73.9633407,
            40.6591159
          ]
        ]
      }
    },
    {
      "type": "Feature",
      "id": "way/259177236",
      "properties": {
        "kind": "path"
      },
      "geometry": {
        "type": "LineString",
        "coordinates": [
          [
            -73.9629271,
            40.6635679
          ],
          [
            -73.9635676,
            40.6632781
          ],
          [
            -73.9637162,
            40.6629345
          ],
          [
            -73.9637588,
            40.6623198
          ],
          [
            -73.9640757,
            40.661971
          ],
          [
            -73.9642178,
            40.6616231
          ],
          [
            -73.964132,
            40.6608438
          ],
          [
            -73.9639802,
            40.6605883
          ],
          [
            -73.9636074,
            40.6602497
          ]
        ]
      }
    },
    {
      "type": "Feature",
      "id": "way/259177238",
      "properties": {
        "kind": "path"
      },
      "geometry": {
        "type": "LineString",
        "coordinates": [
          [
            -73.9638169,
            40.6546352
          ],
          [
            -73.9633266,
            40.6547107
          ],
          [
            -73.962825,
            40.6549679
          ],
          [
            -73.9626557,
            40.6554249
          ]
        ]
      }
    },
    {
      "type": "Feature",
      "id": "way/259177239",
      "properties": {
        "kind": "path"
      },
      "geometry": {
        "type": "LineString",
        "coordinates": [
          [
            -73.9661576,
            40.6583847
          ],
          [
            -73.9656991,
            40.6586418
          ],
          [
            -73.9652116,
            40.6586899
          ],
          [
            -73.9647958,
            40.6585467
          ],
          [
            -73.9645646,
            40.6583971
          ],
          [
            -73.964242,
            40.6579716
          ]
        ]
      }
    },
    {
      "type": "Feature",
      "id": "way/259177241",
      "properties": {
        "kind": "path"
      },
      "geometry": {
        "type": "LineString",
        "coordinates": [
          [
            -73.9702412,
            40.6634804
          ],
          [
            -73.9700856,
            40.6632659
          ],
          [
            -73.9694568,
            40.6629883
          ],
          [
            -73.9693435,
            40.6628805
          ],
          [
            -73.9692309,
            40.6625631
          ]
        ]
      }
    },
    {
      "type": "Feature",
      "id": "way/259177249",
      "properties": {
        "kind": "path"
      },
      "geometry": {
        "type": "LineString",
        "coordinates": [
          [
            -73.9647152,
            40.6577641
          ],
          [
            -73.964242,
            40.6579716
          ],
          [
            -73.9636438,
            40.6588692
          ]
        ]
      }
    },
    {
      "type": "Feature",
      "id": "way/259177262",
      "properties": {
        "kind": "path",
        "name": "Lullwater Trail"
      },
      "geometry": {
        "type": "LineString",
        "coordinates": [
          [
            -73.9661576,
            40.6583847
          ],
          [
            -73.9671626,
            40.6583143
          ],
          [
            -73.9675628,
            40.6582043
          ],
          [
            -73.9678728,
            40.6582761
          ]
        ]
      }
    },
    {
      "type": "Feature",
      "id": "way/259177275",
      "properties": {
        "kind": "drive",
        "name": "East Drive"
      },
      "geometry": {
        "type": "LineString",
        "coordinates": [
          [
            -73.9646027,
            40.661379
          ],
          [
            -73.9645152,
            40.6617625
          ],
          [
            -73.9642121,
            40.6622233
          ]
        ]
      }
    },
    {
      "type": "Feature",
      "id": "way/259177276",
      "properties": {
        "kind": "path"
      },
      "geometry": {
        "type": "LineString",
        "coordinates": [
          [
            -73.9646377,
            40.6628006
          ],
          [
            -73.963971,
            40.662854
          ],
          [
            -73.9637162,
            40.6629345
          ],
          [
            -73.9633736,
            40.6628863
          ],
          [
            -73.9632547,
            40.6629525
          ],
          [
            -73.9631622,
            40.6631173
          ],
          [
            -73.9631417,
            40.6634899
          ]
        ]
      }
    },
    {
      "type": "Feature",
      "id": "way/259178202",
      "properties": {
        "kind": "path"
      },
      "geometry": {
        "type": "LineString",
        "coordinates": [
          [
            -73.9686729,
            40.6686252
          ],
          [
            -73.9688893,
            40.6689942
          ],
          [
            -73.9688092,
            40.6693984
          ],
          [
            -73.9681919,
            40.6698305
          ]
        ]
      }
    },
    {
      "type": "Feature",
      "id": "way/259178208",
      "properties": {
        "kind": "path",
        "name": "Peninsula Trail"
      },
      "geometry": {
        "type": "LineString",
        "coordinates": [
          [
            -73.9687703,
            40.6579529
          ],
          [
            -73.9689251,
            40.6576961
          ],
          [
            -73.9689048,
            40.6574038
          ],
          [
            -73.9688014,
            40.6572851
          ],
          [
            -73.968504,
            40.6571325
          ],
          [
            -73.9679976,
            40.65706
          ],
          [
            -73.9677002,
            40.6572905
          ],
          [
            -73.9675143,
            40.6572997
          ],
          [
            -73.9668051,
            40.657109
          ],
          [
            -73.966534,
            40.656961
          ]
        ]
      }
    },
    {
      "type": "Feature",
      "id": "way/259178214",
      "properties": {
        "kind": "path"
      },
      "geometry": {
        "type": "LineString",
        "coordinates": [
          [
            -73.9726874,
            40.6561691
          ],
          [
            -73.972865,
            40.6569298
          ],
          [
            -73.9728422,
            40.6572239
          ],
          [
            -73.972711,
            40.6576627
          ],
          [
            -73.9723727,
            40.6580332
          ],
          [
            -73.971139,
            40.658728
          ],
          [
            -73.9707649,
            40.6587718
          ],
          [
            -73.9703565,
            40.6587067
          ],
          [
            -73.9700836,
            40.6588573
          ],
          [
            -73.9698861,
            40.6588326
          ]
        ]
      }
    },
    {
      "type": "Feature",
      "id": "way/259178215",
      "properties": {
        "kind": "path",
        "name": "Lullwater Trail"
      },
      "geometry": {
        "type": "LineString",
        "coordinates": [
          [
            -73.9673473,
            40.6604689
          ],
          [
            -73.967812,
            40.6598224
          ],
          [
            -73.9686515,
            40.6591652
          ],
          [
            -73.9687373,
            40.6588925
          ],
          [
            -73.9687239,
            40.6587562
          ],
          [
            -73.9685952,
            40.6585711
          ]
        ]
      }
    },
    {
      "type": "Feature",
      "id": "way/259178223",
      "properties": {
        "kind": "path"
      },
      "geometry": {
        "type": "LineString",
        "coordinates": [
          [
            -73.9694727,
            40.6577225
          ],
          [
            -73.9698024,
            40.6576049
          ],
          [
            -73.9706176,
            40.6571528
          ],
          [
            -73.9722526,
            40.6566363
          ],
          [
            -73.9725434,
            40.6566319
          ],
          [
            -73.972805,
            40.6567523
          ]
        ]
      }
    },
    {
      "type": "Feature",
      "id": "way/259181470",
      "properties": {
        "kind": "path"
      },
      "geometry": {
        "type": "LineString",
        "coordinates": [
          [
            -73.9673473,
            40.6604689
          ],
          [
            -73.9669326,
            40.6603398
          ],
          [
            -73.9665772,
            40.6606856
          ],
          [
            -73.9662099,
            40.6608569
          ],
          [
            -73.9662976,
            40.6613343
          ],
          [
            -73.9662781,
            40.6615524
          ],
          [
            -73.9663829,
            40.6617374
          ]
        ]
      }
    },
    {
      "type": "Feature",
      "id": "way/259194018",
      "properties": {
        "kind": "path",
        "name": "Lullwater Trail"
      },
      "geometry": {
        "type": "LineString",
        "coordinates": [
          [
            -73.9679491,
            40.6580054
          ],
          [
            -73.9674448,
            40.6580557
          ],
          [
            -73.9670827,
            40.6581676
          ],
          [
            -73.9665999,
            40.6581737
          ],
          [
            -73.9663907,
            40.6582226
          ],
          [
            -73.9661576,
            40.6583847
          ]
        ]
      }
    },
    {
      "type": "Feature",
      "id": "way/259194021",
      "properties": {
        "kind": "path"
      },
      "geometry": {
        "type": "LineString",
        "coordinates": [
          [
            -73.9719324,
            40.6554381
          ],
          [
            -73.9717857,
            40.6553508
          ],
          [
            -73.9716421,
            40.6551241
          ],
          [
            -73.9715008,
            40.6542864
          ],
          [
            -73.9717881,
            40.6534162
          ],
          [
            -73.9716766,
            40.6530486
          ]
        ]
      }
    },
    {
      "type": "Feature",
      "id": "way/259194031",
      "properties": {
        "kind": "path",
        "name": "White Levy Esplanade"
      },
      "geometry": {
        "type": "LineString",
        "coordinates": [
          [
            -73.9656208,
            40.6584282
          ],
          [
            -73.9655451,
            40.6583503
          ],
          [
            -73.9655761,
            40.6582133
          ],
          [
            -73.9651103,
            40.6581774
          ],
          [
            -73.964915,
            40.6580033
          ],
          [
            -73.9648719,
            40.6578554
          ],
          [
            -73.9647152,
            40.6577641
          ]
        ]
      }
    },
    {
      "type": "Feature",
      "id": "way/259194037",
      "properties": {
        "kind": "path",
        "name": "Lullwater Trail"
      },
      "geometry": {
        "type": "LineString",
        "coordinates": [
          [
            -73.9668207,
            40.6595381
          ],
          [
            -73.9679142,
            40.6589144
          ],
          [
            -73.9681181,
            40.6587272
          ],
          [
            -73.9682656,
            40.6584484
          ]
        ]
      }
    },
    {
      "type": "Feature",
      "id": "way/312576363",
      "properties": {
        "kind": "path"
      },
      "geometry": {
        "type": "LineString",
        "coordinates": [
          [
            -73.9653443,
            40.665552
          ],
          [
            -73.9656497,
            40.6655505
          ],
          [
            -73.965665,
            40.6656583
          ],
          [
            -73.9657442,
            40.6656938
          ],
          [
            -73.9656011,
            40.6658758
          ],
          [
            -73.9657623,
            40.6660005
          ],
          [
            -73.9656237,
            40.6660224
          ],
          [
            -73.9655193,
            40.665937
          ],
          [
            -73.9654766,
            40.666003
          ],
          [
            -73.965253,
            40.6660665
          ],
          [
            -73.9651783,
            40.6659665
          ]
        ]
      }
    },
    {
      "type": "Feature",
      "id": "way/375109044",
      "properties": {
        "kind": "path",
        "name": "Peninsula Trail"
      },
      "geometry": {
        "type": "LineString",
        "coordinates": [
          [
            -73.9701998,
            40.656658
          ],
          [
            -73.9692464,
            40.6564293
          ],
          [
            -73.9680762,
            40.6564369
          ]
        ]
      }
    },
    {
      "type": "Feature",
      "id": "way/375109952",
      "properties": {
        "kind": "path",
        "name": "Wellhouse Drive"
      },
      "geometry": {
        "type": "LineString",
        "coordinates": [
          [
            -73.9655741,
            40.6595013
          ],
          [
            -73.9665196,
            40.6591786
          ],
          [
            -73.9668905,
            40.6588672
          ]
        ]
      }
    },
    {
      "type": "Feature",
      "id": "way/375111268",
      "properties": {
        "kind": "path"
      },
      "geometry": {
        "type": "LineString",
        "coordinates": [
          [
            -73.9649987,
            40.6600073
          ],
          [
            -73.9652008,
            40.6600706
          ],
          [
            -73.9652116,
            40.6605294
          ],
          [
            -73.9651376,
            40.6609398
          ],
          [
            -73.9651814,
            40.6611586
          ],
          [
            -73.9653095,
            40.6613347
          ],
          [
            -73.9656307,
            40.6615224
          ],
          [
            -73.9657541,
            40.6616915
          ],
          [
            -73.9656417,
            40.6618646
          ],
          [
            -73.9654331,
            40.6619906
          ],
          [
            -73.9652564,
            40.6622121
          ],
          [
            -73.9649187,
            40.6624131
          ],
          [
            -73.9646805,
            40.6626797
          ],
          [
            -73.9645647,
            40.6630697
          ],
          [
            -73.9647925,
            40.6635052
          ]
        ]
      }
    },
    {
      "type": "Feature",
      "id": "way/377922521",
      "properties": {
        "kind": "drive",
        "name": "West Drive"
      },
      "geometry": {
        "type": "LineString",
        "coordinates": [
          [
            -73.9730579,
            40.6580699
          ],
          [
            -73.9730651,
            40.6576496
          ]
        ]
      }
    },
    {
      "type": "Feature",
      "id": "way/422883115",
      "properties": {
        "kind": "drive",
        "name": "Center Drive"
      },
      "geometry": {
        "type": "LineString",
        "coordinates": [
          [
            -73.9734889,
            40.6577218
          ],
          [
            -73.9738124,
            40.6575117
          ]
        ]
      }
    },
    {
      "type": "Feature",
      "id": "way/422883116",
      "properties": {
        "kind": "drive",
        "name": "Center Drive"
      },
      "geometry": {
        "type": "LineString",
        "coordinates": [
          [
            -73.9730579,
            40.6580699
          ],
          [
            -73.9734889,
            40.6577218
          ]
        ]
      }
    },
    {
      "type": "Feature",
      "id": "way/422883117",
      "properties": {
        "kind": "drive",
        "name": "Center Drive"
      },
      "geometry": {
        "type": "LineString",
        "coordinates": [
          [
            -73.972672,
            40.6583965
          ],
          [
            -73.9728892,
            40.6582856
          ],
          [
            -73.9730579,
            40.6580699
          ]
        ]
      }
    },
    {
      "type": "Feature",
      "id": "way/495991868",
      "properties": {
        "kind": "drive",
        "name": "East Drive"
      },
      "geometry": {
        "type": "LineString",
        "coordinates": [
          [
            -73.9642121,
            40.6622233
          ],
          [
            -73.964505,
            40.662038
          ],
          [
            -73.964699,
            40.662034
          ],
          [
            -73.9650166,
            40.6621369
          ]
        ]
      }
    },
    {
      "type": "Feature",
      "id": "way/505864687",
      "properties": {
        "kind": "drive",
        "name": "West Drive"
      },
      "geometry": {
        "type": "LineString",
        "coordinates": [
          [
            -73.9698134,
            40.6721969
          ],
          [
            -73.9697237,
            40.6717691
          ],
          [
            -73.9697915,
            40.6714714
          ],
          [
            -73.9699568,
            40.6712838
          ],
          [
            -73.9704216,
            40.6710047
          ]
        ]
      }
    },
    {
      "type": "Feature",
      "id": "way/700547264",
      "properties": {
        "kind": "path"
      },
      "geometry": {
        "type": "LineString",
        "coordinates": [
          [
            -73.9727189,
            40.6673878
          ],
          [
            -73.9719895,
            40.667448
          ],
          [
            -73.971571,
            40.6674024
          ],
          [
            -73.9703439,
            40.6670329
          ],
          [
            -73.9700349,
            40.6668518
          ],
          [
            -73.9697675,
            40.6665963
          ]
        ]
      }
    },
    {
      "type": "Feature",
      "id": "way/700606443",
      "properties": {
        "kind": "path"
      },
      "geometry": {
        "type": "LineString",
        "coordinates": [
          [
            -73.9694568,
            40.6629883
          ],
          [
            -73.9693079,
            40.6632295
          ],
          [
            -73.969304,
            40.6633474
          ],
          [
            -73.9690982,
            40.6635706
          ],
          [
            -73.9691244,
            40.6639023
          ],
          [
            -73.9690671,
            40.6640714
          ]
        ]
      }
    },
    {
      "type": "Feature",
      "id": "way/701424165",
      "properties": {
        "kind": "path"
      },
      "geometry": {
        "type": "LineString",
        "coordinates": [
          [
            -73.9691036,
            40.6709104
          ],
          [
            -73.969777,
            40.6707982
          ],
          [
            -73.9701019,
            40.6706318
          ],
          [
            -73.9704283,
            40.6706422
          ],
          [
            -73.9705985,
            40.6705786
          ]
        ]
      }
    },
    {
      "type": "Feature",
      "id": "way/701453408",
      "properties": {
        "kind": "path"
      },
      "geometry": {
        "type": "LineString",
        "coordinates": [
          [
            -73.9668144,
            40.6654083
          ],
          [
            -73.9670169,
            40.6644705
          ],
          [
            -73.9674097,
            40.663935
          ]
        ]
      }
    },
    {
      "type": "Feature",
      "id": "way/702147639",
      "properties": {
        "kind": "path"
      },
      "geometry": {
        "type": "LineString",
        "coordinates": [
          [
            -73.9722696,
            40.6692881
          ],
          [
            -73.9720076,
            40.6696106
          ],
          [
            -73.9713749,
            40.6701275
          ],
          [
            -73.9712414,
            40.670394
          ],
          [
            -73.9711869,
            40.6708191
          ],
          [
            -73.970851,
            40.6710947
          ]
        ]
      }
    },
    {
      "type": "Feature",
      "id": "way/702151308",
      "properties": {
        "kind": "path"
      },
      "geometry": {
        "type": "LineString",
        "coordinates": [
          [
            -73.9720823,
            40.6653486
          ],
          [
            -73.9719013,
            40.6656481
          ],
          [
            -73.9717837,
            40.6657683
          ],
          [
            -73.9716405,
            40.6658025
          ],
          [
            -73.9714713,
            40.666165
          ],
          [
            -73.9714706,
            40.6664653
          ],
          [
            -73.9716618,
            40.6668605
          ],
          [
            -73.971571,
            40.6674024
          ],
          [
            -73.9717123,
            40.6675764
          ],
          [
            -73.9717671,
            40.6677912
          ],
          [
            -73.9716155,
            40.6680795
          ]
        ]
      }
    },
    {
      "type": "Feature",
      "id": "way/702154486",
      "properties": {
        "kind": "path"
      },
      "geometry": {
        "type": "LineString",
        "coordinates": [
          [
            -73.9746055,
            40.6631569
          ],
          [
            -73.9739396,
            40.6637361
          ],
          [
            -73.9730589,
            40.6641961
          ]
        ]
      }
    },
    {
      "type": "Feature",
      "id": "way/702164047",
      "properties": {
        "kind": "path"
      },
      "geometry": {
        "type": "LineString",
        "coordinates": [
          [
            -73.9734637,
            40.6588518
          ],
          [
            -73.973382,
            40.6589094
          ],
          [
            -73.972987,
            40.6589418
          ],
          [
            -73.9722388,
            40.6588417
          ],
          [
            -73.9720738,
            40.6588761
          ],
          [
            -73.9718737,
            40.6591243
          ]
        ]
      }
    },
    {
      "type": "Feature",
      "id": "way/702282060",
      "properties": {
        "kind": "path"
      },
      "geometry": {
        "type": "LineString",
        "coordinates": [
          [
            -73.9697675,
            40.6665963
          ],
          [
            -73.9696742,
            40.6661287
          ],
          [
            -73.9696695,
            40.6656349
          ],
          [
            -73.9700877,
            40.6651099
          ],
          [
            -73.9702687,
            40.6646386
          ]
        ]
      }
    },
    {
      "type": "Feature",
      "id": "way/702862972",
      "properties": {
        "kind": "drive",
        "name": "East Drive"
      },
      "geometry": {
        "type": "LineString",
        "coordinates": [
          [
            -73.9619009,
            40.6548751
          ],
          [
            -73.9623516,
            40.6550545
          ]
        ]
      }
    },
    {
      "type": "Feature",
      "id": "way/702900584",
      "properties": {
        "kind": "path"
      },
      "geometry": {
        "type": "LineString",
        "coordinates": [
          [
            -73.9643665,
            40.6548227
          ],
          [
            -73.9648265,
            40.6546335
          ],
          [
            -73.965084,
            40.6546173
          ],
          [
            -73.9656975,
            40.6547729
          ],
          [
            -73.9660415,
            40.6545908
          ],
          [
            -73.9660254,
            40.6543456
          ],
          [
            -73.966075,
            40.6543029
          ],
          [
            -73.9664878,
            40.6541699
          ]
        ]
      }
    },
    {
      "type": "Feature",
      "id": "way/703212333",
      "properties": {
        "kind": "path"
      },
      "geometry": {
        "type": "LineString",
        "coordinates": [
          [
            -73.964133,
            40.6581277
          ],
          [
            -73.9636988,
            40.6580547
          ],
          [
            -73.9634157,
            40.6577935
          ],
          [
            -73.9634881,
            40.6575414
          ],
          [
            -73.9637416,
            40.6574506
          ]
        ]
      }
    },
    {
      "type": "Feature",
      "id": "way/703212334",
      "properties": {
        "kind": "path"
      },
      "geometry": {
        "type": "LineString",
        "coordinates": [
          [
            -73.9639746,
            40.656355
          ],
          [
            -73.9637861,
            40.6563074
          ],
          [
            -73.9634709,
            40.656364
          ],
          [
            -73.9633108,
            40.6564652
          ],
          [
            -73.9632484,
            40.6565875
          ],
          [
            -73.963312,
            40.6569108
          ],
          [
            -73.9637405,
            40.6573522
          ]
        ]
      }
    },
    {
      "type": "Feature",
      "id": "way/703212336",
      "properties": {
        "kind": "path"
      },
      "geometry": {
        "type": "LineString",
        "coordinates": [
          [
            -73.9639632,
            40.6571118
          ],
          [
            -73.9638643,
            40.6570024
          ],
          [
            -73.9639626,
            40.6568101
          ],
          [
            -73.9642184,
            40.6566961
          ],
          [
            -73.9644312,
            40.6567183
          ],
          [
            -73.9644827,
            40.6568009
          ],
          [
            -73.9644427,
            40.6569426
          ],
          [
            -73.9641075,
            40.6571201
          ]
        ]
      }
    },
    {
      "type": "Feature",
      "id": "way/706812119",
      "properties": {
        "kind": "path"
      },
      "geometry": {
        "type": "LineString",
        "coordinates": [
          [
            -73.9659594,
            40.6651768
          ],
          [
            -73.9656724,
            40.6648228
          ],
          [
            -73.965256,
            40.6639836
          ],
          [
            -73.9647925,
            40.6635052
          ]
        ]
      }
    },
    {
      "type": "Feature",
      "id": "way/706812123",
      "properties": {
        "kind": "path"
      },
      "geometry": {
        "type": "LineString",
        "coordinates": [
          [
            -73.9668579,
            40.6626111
          ],
          [
            -73.9666691,
            40.6629335
          ],
          [
            -73.9666053,
            40.6632441
          ],
          [
            -73.9667917,
            40.6641637
          ]
        ]
      }
    },
    {
      "type": "Feature",
      "id": "way/706812125",
      "properties": {
        "kind": "drive",
        "name": "East Drive"
      },
      "geometry": {
        "type": "LineString",
        "coordinates": [
          [
            -73.9650364,
            40.6621685
          ],
          [
            -73.9651646,
            40.6623992
          ]
        ]
      }
    },
    {
      "type": "Feature",
      "id": "way/707356262",
      "properties": {
        "kind": "path"
      },
      "geometry": {
        "type": "LineString",
        "coordinates": [
          [
            -73.9674394,
            40.6572828
          ],
          [
            -73.9672957,
            40.6574405
          ],
          [
            -73.9670565,
            40.6575046
          ],
          [
            -73.966478,
            40.6573351
          ],
          [
            -73.9662722,
            40.6573832
          ],
          [
            -73.9662511,
            40.6572031
          ],
          [
            -73.9659689,
            40.657077
          ],
          [
            -73.9659759,
            40.6567602
          ]
        ]
      }
    },
    {
      "type": "Feature",
      "id": "way/707356264",
      "properties": {
        "kind": "path"
      },
      "geometry": {
        "type": "LineString",
        "coordinates": [
          [
            -73.966534,
            40.656961
          ],
          [
            -73.9671067,
            40.6568546
          ],
          [
            -73.9679976,
            40.65706
          ]
        ]
      }
    },
    {
      "type": "Feature",
      "id": "way/711144249",
      "properties": {
        "kind": "path"
      },
      "geometry": {
        "type": "LineString",
        "coordinates": [
          [
            -73.9716851,
            40.6577348
          ],
          [
            -73.9720403,
            40.6576486
          ],
          [
            -73.9721891,
            40.6575199
          ],
          [
            -73.9722008,
            40.6574352
          ],
          [
            -73.9720518,
            40.6573803
          ],
          [
            -73.971868,
            40.6574207
          ],
          [
            -73.9716867,
            40.657541
          ],
          [
            -73.9716127,
            40.6576814
          ]
        ]
      }
    },
    {
      "type": "Feature",
      "id": "way/711331288",
      "properties": {
        "kind": "path"
      },
      "geometry": {
        "type": "LineString",
        "coordinates": [
          [
            -73.972627,
            40.654865
          ],
          [
            -73.9724188,
            40.6552795
          ],
          [
            -73.9721062,
            40.6554558
          ],
          [
            -73.9724656,
            40.6557895
          ],
          [
            -73.9726874,
            40.6561691
          ]
        ]
      }
    },
    {
      "type": "Feature",
      "id": "way/713178762",
      "properties": {
        "kind": "path"
      },
      "geometry": {
        "type": "LineString",
        "coordinates": [
          [
            -73.9700586,
            40.6604603
          ],
          [
            -73.9702378,
            40.6602582
          ],
          [
            -73.9706904,
            40.6600206
          ],
          [
            -73.9710863,
            40.6597
          ],
          [
            -73.9714033,
            40.6591728
          ]
        ]
      }
    },
    {
      "type": "Feature",
      "id": "way/713178770",
      "properties": {
        "kind": "path"
      },
      "geometry": {
        "type": "LineString",
        "coordinates": [
          [
            -73.9688641,
            40.6647064
          ],
          [
            -73.9687224,
            40.6647837
          ],
          [
            -73.9685909,
            40.6649861
          ],
          [
            -73.9686307,
            40.665291
          ],
          [
            -73.9687907,
            40.6654244
          ],
          [
            -73.968849,
            40.6656712
          ],
          [
            -73.9686542,
            40.6658193
          ]
        ]
      }
    },
    {
      "type": "Feature",
      "id": "way/713178771",
      "properties": {
        "kind": "path"
      },
      "geometry": {
        "type": "LineString",
        "coordinates": [
          [
            -73.9696947,
            40.6610541
          ],
          [
            -73.9696862,
            40.6608513
          ],
          [
            -73.9696018,
            40.6606988
          ],
          [
            -73.9692105,
            40.6604555
          ],
          [
            -73.9687614,
            40.660409
          ],
          [
            -73.9682569,
            40.6604929
          ]
        ]
      }
    },
    {
      "type": "Feature",
      "id": "way/741748402",
      "properties": {
        "kind": "path"
      },
      "geometry": {
        "type": "LineString",
        "coordinates": [
          [
            -73.9694204,
            40.6722785
          ],
          [
            -73.9692015,
            40.6721802
          ],
          [
            -73.9686127,
            40.6713469
          ],
          [
            -73.9681616,
            40.6705329
          ],
          [
            -73.9679918,
            40.6704097
          ],
          [
            -73.9677881,
            40.6700326
          ],
          [
            -73.9674146,
            40.6696877
          ],
          [
            -73.9668012,
            40.6688445
          ]
        ]
      }
    },
    {
      "type": "Feature",
      "id": "way/741966770",
      "properties": {
        "kind": "path"
      },
      "geometry": {
        "type": "LineString",
        "coordinates": [
          [
            -73.966882,
            40.6671636
          ],
          [
            -73.967504,
            40.6670323
          ],
          [
            -73.9678788,
            40.6667236
          ],
          [
            -73.9679191,
            40.6662861
          ],
          [
            -73.9677501,
            40.6661692
          ],
          [
            -73.9677595,
            40.6658848
          ]
        ]
      }
    },
    {
      "type": "Feature",
      "id": "way/749047874",
      "properties": {
        "kind": "path"
      },
      "geometry": {
        "type": "LineString",
        "coordinates": [
          [
            -73.9638218,
            40.6555812
          ],
          [
            -73.963838,
            40.6553808
          ],
          [
            -73.9641677,
            40.6549835
          ],
          [
            -73.9646398,
            40.6545342
          ],
          [
            -73.9650146,
            40.6543112
          ],
          [
            -73.9657178,
            40.6540844
          ],
          [
            -73.9664878,
            40.6541699
          ],
          [
            -73.9672681,
            40.6538833
          ],
          [
            -73.9680323,
            40.6538665
          ],
          [
            -73.9683476,
            40.6535379
          ],
          [
            -73.9688873,
            40.6531413
          ]
        ]
      }
    },
    {
      "type": "Feature",
      "id": "way/760417897",
      "properties": {
        "kind": "path"
      },
      "geometry": {
        "type": "LineString",
        "coordinates": [
          [
            -73.9652005,
            40.6653347
          ],
          [
            -73.9654016,
            40.6651418
          ],
          [
            -73.9652668,
            40.6650918
          ],
          [
            -73.9652623,
            40.6649487
          ],
          [
            -73.9651726,
            40.6648269
          ],
          [
            -73.9651395,
            40.6646398
          ],
          [
            -73.9652322,
            40.6644938
          ],
          [
            -73.9652083,
            40.6643664
          ],
          [
            -73.9650076,
            40.6642372
          ],
          [
            -73.9648358,
            40.664347
          ],
          [
            -73.9647527,
            40.6642802
          ],
          [
            -73.9645996,
            40.6643246
          ],
          [
            -73.9645604,
            40.6644893
          ],
          [
            -73.9646978,
            40.6645753
          ],
          [
            -73.9648035,
            40.6645391
          ],
          [
            -73.964864,
            40.6645879
          ],
          [
            -73.9648253,
            40.66463
          ]
        ]
      }
    },
    {
      "type": "Feature",
      "id": "way/891344965",
      "properties": {
        "kind": "path",
        "name": "White Levy Esplanade"
      },
      "geometry": {
        "type": "LineString",
        "coordinates": [
          [
            -73.9647152,
            40.6577641
          ],
          [
            -73.9649657,
            40.6574368
          ],
          [
            -73.9650028,
            40.6571781
          ],
          [
            -73.9647049,
            40.6567921
          ],
          [
            -73.9644781,
            40.6566708
          ],
          [
            -73.9645155,
            40.6564514
          ],
          [
            -73.9646966,
            40.6562905
          ],
          [
            -73.9644617,
            40.6562146
          ],
          [
            -73.9642366,
            40.6562294
          ]
        ]
      }
    },
    {
      "type": "Feature",
      "id": "way/946159481",
      "properties": {
        "kind": "path"
      },
      "geometry": {
        "type": "LineString",
        "coordinates": [
          [
            -73.9665339,
            40.6685439
          ],
          [
            -73.9659889,
            40.6676951
          ],
          [
            -73.9657102,
            40.6674808
          ],
          [
            -73.9651882,
            40.6666947
          ],
          [
            -73.9655144,
            40.6665337
          ],
          [
            -73.9656754,
            40.6666063
          ],
          [
            -73.9656573,
            40.6667786
          ],
          [
            -73.9657115,
            40.6669156
          ],
          [
            -73.9657812,
            40.666932
          ]
        ]
      }
    },
    {
      "type": "Feature",
      "id": "way/1035881161",
      "properties": {
        "kind": "path",
        "name": "Midwood Trail"
      },
      "geometry": {
        "type": "LineString",
        "coordinates": [
          [
            -73.9658337,
            40.6631687
          ],
          [
            -73.9675734,
            40.6628053
          ]
        ]
      }
    },
    {
      "type": "Feature",
      "id": "way/1035881163",
      "properties": {
        "kind": "path",
        "name": "Midwood Trail"
      },
      "geometry": {
        "type": "LineString",
        "coordinates": [
          [
            -73.9675734,
            40.6628053
          ],
          [
            -73.9671437,
            40.663383
          ],
          [
            -73.9667128,
            40.6636574
          ],
          [
            -73.9664069,
            40.6640284
          ]
        ]
      }
    },
    {
      "type": "Feature",
      "id": "way/1108056027",
      "properties": {
        "kind": "path"
      },
      "geometry": {
        "type": "LineString",
        "coordinates": [
          [
            -73.9658419,
            40.6588862
          ],
          [
            -73.9664566,
            40.6586274
          ],
          [
            -73.9672649,
            40.6584684
          ]
        ]
      }
    },
    {
      "type": "Feature",
      "id": "way/1184655408",
      "properties": {
        "kind": "path"
      },
      "geometry": {
        "type": "LineString",
        "coordinates": [
          [
            -73.9631644,
            40.66391
          ],
          [
            -73.963559,
            40.6637357
          ],
          [
            -73.9639262,
            40.663774
          ],
          [
            -73.9641117,
            40.6640454
          ],
          [
            -73.9642037,
            40.6645508
          ]
        ]
      }
    },
    {
      "type": "Feature",
      "id": "way/1206161553",
      "properties": {
        "kind": "path"
      },
      "geometry": {
        "type": "LineString",
        "coordinates": [
          [
            -73.9690519,
            40.6695227
          ],
          [
            -73.9687895,
            40.6700392
          ],
          [
            -73.9687226,
            40.670451
          ],
          [
            -73.9687917,
            40.6706278
          ]
        ]
      }
    },
    {
      "type": "Feature",
      "id": "way/1206161554",
      "properties": {
        "kind": "path"
      },
      "geometry": {
        "type": "LineString",
        "coordinates": [
          [
            -73.9713532,
            40.6697147
          ],
          [
            -73.9718365,
            40.6692862
          ],
          [
            -73.9721343,
            40.6687127
          ]
        ]
      }
    },
    {
      "type": "Feature",
      "id": "way/1220636629",
      "properties": {
        "kind": "path",
        "name": "Fallkill Trail"
      },
      "geometry": {
        "type": "LineString",
        "coordinates": [
          [
            -73.9713698,
            40.6620289
          ],
          [
            -73.9717195,
            40.6618877
          ],
          [
            -73.9717797,
            40.661737
          ],
          [
            -73.9716412,
            40.6615262
          ],
          [
            -73.9717367,
            40.661453
          ],
          [
            -73.9718914,
            40.6614574
          ],
          [
            -73.9721779,
            40.6616696
          ],
          [
            -73.9723015,
            40.6616872
          ]
        ]
      }
    },
    {
      "type": "Feature",
      "id": "way/1446284692",
      "properties": {
        "kind": "drive",
        "name": "East Drive"
      },
      "geometry": {
        "type": "LineString",
        "coordinates": [
          [
            -73.9650166,
            40.6621369
          ],
          [
            -73.9650364,
            40.6621685
          ]
        ]
      }
    },
    {
      "type": "Feature",
      "id": "way/1481004644",
      "properties": {
        "kind": "path"
      },
      "geometry": {
        "type": "LineString",
        "coordinates": [
          [
            -73.9735143,
            40.6570694
          ],
          [
            -73.9734284,
            40.6574835
          ],
          [
            -73.9735416,
            40.6579238
          ],
          [
            -73.9740148,
            40.6586587
          ]
        ]
      }
    },
    {
      "type": "Feature",
      "id": "way/1486395467",
      "properties": {
        "kind": "path"
      },
      "geometry": {
        "type": "LineString",
        "coordinates": [
          [
            -73.9681919,
            40.6698305
          ],
          [
            -73.9680246,
            40.6701144
          ],
          [
            -73.96803,
            40.6702304
          ],
          [
            -73.9681635,
            40.6704645
          ],
          [
            -73.9685143,
            40.670827
          ],
          [
            -73.9687405,
            40.671275
          ]
        ]
      }
    }
  ]
}